{"type":"FeatureCollection", "features": [
{"type":"Feature","geometry":{"type":"Polygon","coordinates":[[[-58.459509,-34.5274007],[-58.3616153,-34.5811422],[-58.3490307,-34.6325892],[-58.4614155,-34.705637],[-58.5291731,-34.6538022],[-58.5005004,-34.5494947],[-58.459509,-34.5274007]]]},"properties":{"srid":"4326","id":"3082668","name":"Autonomous City of Buenos Aires","localname":"Ciudad Autónoma de Buenos Aires","official_name":"Ciudad Autónoma de Buenos Aires","boundary":"administrative","admin_level":"4","note":"","wikidata":"Q1486","wikipedia":"es:Buenos Aires","timestamp":"2019-12-06 15:53:02","rpath":"3082668,286393,0","alltags":{"name:el":"Αυτόνομη Πόλη του Μπουένος Άιρες","name:en":"Autonomous City of Buenos Aires","name:es":"Ciudad Autónoma de Buenos Aires","name:he":"בואנוס אירס","name:ru":"Буэнос-Айрес","name:uk":"Буенос-Айрес","alt_name":"Capital Federal","timezone":"America/Argentina/Buenos_Aires","wikidata":"Q1486","ISO3166-2":"AR-C","wikipedia":"es:Buenos Aires","population":"2890151","short_name":"CABA","is_in:country":"Argentina","official_name":"Ciudad Autónoma de Buenos Aires","official_name:ru":"Федеральная столица Буэнос-Айрес"}}},
{"type":"Feature","geometry":{"type":"Polygon","coordinates":[[[-62.8840813,-34.3863745],[-62.3630339,-34.3859352],[-61.7176808,-34.385686],[-61.3106381,-34.0103055],[-61.0346834,-33.7312002],[-60.9218056,-33.6369691],[-60.861333,-33.5463584],[-60.6924509,-33.5840595],[-60.5233485,-33.6487618],[-60.457614,-33.6279463],[-60.4184889,-33.5585552],[-60.4101925,-33.4677255],[-60.3464618,-33.4241479],[-60.2602234,-33.2616119],[-60.0411661,-33.4481117],[-59.939836,-33.4721249],[-59.8249887,-33.5318507],[-59.7763253,-33.6084891],[-59.6428178,-33.6354532],[-59.613589,-33.6892065],[-59.5365374,-33.6358229],[-59.3975522,-33.7366711],[-59.2569093,-33.7233747],[-59.2480358,-33.8046148],[-59.1721337,-33.8062638],[-59.1187741,-33.8493721],[-59.0425565,-33.8351143],[-58.8965533,-33.8919606],[-58.862312,-33.9391412],[-58.747554,-33.9545447],[-58.6333809,-34.0391882],[-58.3873832,-33.9854186],[-58.3442933,-34.0068209],[-58.2950662,-34.1780899],[-58.1348054,-34.2709078],[-58.5091957,-34.4433209],[-58.459509,-34.5274007],[-58.5005004,-34.5494947],[-58.5291731,-34.6538022],[-58.4614155,-34.705637],[-58.3490307,-34.6325892],[-58.1871119,-34.7382423],[-58.0131022,-34.7812108],[-57.9536721,-34.82851],[-57.8727592,-34.8289071],[-57.7865964,-34.8932048],[-57.50749,-35.0252201],[-57.3393299,-35.1591801],[-57.2243441,-35.2750628],[-57.1475406,-35.3900725],[-57.14227,-35.4784901],[-57.253629,-35.5962862],[-57.3653757,-35.7463228],[-57.3898202,-35.8528809],[-57.3806724,-35.9706366],[-57.2784134,-36.1302851],[-57.093721,-36.2858662],[-57.0108409,-36.3267463],[-56.9141512,-36.3376099],[-56.74105,-36.31392],[-56.6994497,-36.4147478],[-56.6646715,-36.8695285],[-56.9914301,-37.2917801],[-57.1257437,-37.493085],[-57.4144475,-37.7386322],[-57.5146466,-37.8718366],[-57.5440552,-37.989997],[-57.542389,-38.0982616],[-57.6630699,-38.1914301],[-57.8531245,-38.2965452],[-58.3298259,-38.4830532],[-58.4971186,-38.537617],[-58.6913015,-38.5755537],[-59.0109408,-38.6783727],[-59.6829806,-38.7964734],[-59.7831099,-38.82587],[-60.0728903,-38.8607806],[-60.4252365,-38.9200376],[-60.6883049,-38.9497807],[-60.8516193,-38.9801623],[-61.1183315,-38.9986041],[-61.39874,-38.98952],[-61.6047065,-39.0042057],[-61.6953649,-38.9670889],[-61.8101987,-38.9923702],[-62.0457555,-38.930465],[-62.1385964,-38.820087],[-62.3014235,-38.7825532],[-62.3731827,-38.7384356],[-62.5418391,-38.7385981],[-62.5224601,-38.8173599],[-62.39066,-38.8360101],[-62.321267,-38.8954148],[-62.34475,-38.95416],[-62.3018801,-39.01554],[-62.35498,-39.11382],[-62.27859,-39.26592],[-62.1062279,-39.2943544],[-62.0030594,-39.4061904],[-62.0660232,-39.4362466],[-62.1079649,-39.6258575],[-62.089212,-39.6810664],[-62.1269595,-39.8585002],[-62.2442001,-39.8501701],[-62.3117012,-39.8789752],[-62.3485333,-40.0692458],[-62.3446441,-40.1969949],[-62.48483,-40.3027701],[-62.4233723,-40.4578828],[-62.172854,-40.5843288],[-62.3109985,-40.8699453],[-62.5377617,-40.9533007],[-62.7057982,-41.0335443],[-62.790071,-41.0234191],[-62.8058525,-40.9804263],[-62.960106,-40.8167661],[-63.1843101,-40.7221828],[-63.3793513,-40.7101894],[-63.3822022,-39.8743934],[-63.3832641,-39.32873],[-63.3849149,-38.7072643],[-63.3856726,-37.8600702],[-63.3853593,-37.4396402],[-63.3851251,-36.6662392],[-63.3853551,-36.0516107],[-63.3858503,-35.5785318],[-63.3855874,-35.0022588],[-63.3826793,-34.8185602],[-63.3912994,-34.386455],[-62.8840813,-34.3863745]]]},"properties":{"srid":"4326","id":"1632167","name":"Buenos Aires","localname":"Buenos Aires","official_name":"Provincia de Buenos Aires","boundary":"administrative","admin_level":"4","note":"","wikidata":"Q44754","wikipedia":"es:Provincia de Buenos Aires","timestamp":"2019-12-11 22:37:02","rpath":"1632167,286393,0","alltags":{"name:af":"Buenos Aires","name:ar":"بوينس آيرس","name:ay":"Buenos Aires jisk'a suyu","name:be":"Буэнас-Айрэс","name:bg":"Буенос Айрес","name:br":"Buenos Aires","name:ca":"Província de Buenos Aires","name:cs":"Buenos Aires","name:cy":"Talaith Buenos Aires","name:da":"Provincia de Buenos Aires","name:en":"Buenos Aires","name:eo":"Provinco Bonaero","name:es":"Buenos Aires","name:et":"Buenos Airese provints","name:eu":"Buenos Airesko probintzia","name:fa":"استان بوئنوس آیرس","name:fi":"Buenos Airesin maakunta","name:fr":"Province de Buenos Aires","name:gl":"Provincia de Buenos Aires","name:gn":"Tetãvore Buenos Aires","name:he":"בואנוס איירס","name:hi":"ब्यूनर्स आयर्स","name:hr":"Buenos Aires","name:hu":"Buenos Aires tartomány","name:hy":"Բուենոս Այրես","name:ia":"Provincia de Buenos Aires","name:id":"Provinsi Buenos Aires","name:io":"Provinco Buenos Aires","name:it":"Provincia di Buenos Aires","name:ja":"ブエノスアイレス州","name:ka":"ბუენოს-აირესის პროვინცია","name:ko":"부에노스아이레스주","name:la":"Bonus Aër","name:lt":"Buenos Airės","name:lv":"Buenosairesas province","name:mk":"Буенос Аирес","name:mn":"Буэнос-Айрес муж","name:mr":"बुएनोस आइरेस प्रांत","name:ms":"Buenos Aires","name:nl":"Buenos Aires","name:no":"Buenos Aires","name:oc":"Província de Buenos Aires","name:os":"Буэнос-Айрес","name:pl":"Buenos Aires","name:pt":"Buenos Aires","name:qu":"Buenos Aires wamani","name:ro":"Provincia Buenos Aires","name:ru":"Буэнос-Айрес","name:sk":"Buenos Aires","name:sr":"Буенос Ајрес","name:sv":"Buenos Aires","name:sw":"Mkoa wa Buenos Aires","name:tg":"Буэнос-Айрес","name:th":"รัฐบัวโนสไอเรส","name:tl":"Lalawigan ng Buenos Aires","name:tr":"Buenos Aires","name:tt":"Буйныс-Айрыс","name:uk":"Буенос-Айрес","name:ur":"صوبہ بیونس آئرس","name:vi":"Buenos Aires","name:vo":"Buenos Aires","name:zh":"布宜诺斯艾利斯省","wikidata":"Q44754","ISO3166-2":"AR-B","wikipedia":"es:Provincia de Buenos Aires","short_name":"Bs. As.","official_name":"Provincia de Buenos Aires"}}},
{"type":"Feature","geometry":{"type":"Polygon","coordinates":[[[-69.0952099,-27.7947586],[-69.0933725,-27.7175764],[-69.0453245,-27.6992328],[-69.0531694,-27.616953],[-68.9428512,-27.5151715],[-68.9366184,-27.4444064],[-68.8686677,-27.3170377],[-68.8412019,-27.1546402],[-68.7781902,-27.0988677],[-68.6686737,-27.1037584],[-68.6183769,-27.1698979],[-68.5565359,-27.1143323],[-68.4963842,-27.1351392],[-68.4322826,-27.0652735],[-68.3477095,-27.0337462],[-68.280928,-26.9035771],[-68.3653678,-26.8007727],[-68.5873359,-26.4929356],[-68.5575358,-26.2871033],[-68.3810751,-26.1782199],[-68.4789169,-25.7080995],[-68.5416599,-25.6386639],[-68.525151,-25.5672494],[-68.5864784,-25.4276695],[-68.5226055,-25.3743526],[-68.5433619,-25.3022807],[-68.5072231,-25.1685671],[-67.864494,-25.237685],[-66.8794989,-25.2412435],[-66.5593434,-25.2986428],[-66.520114,-25.4490487],[-66.5366042,-25.537698],[-66.6308141,-25.6590318],[-66.6487313,-25.7119195],[-66.812861,-25.7001258],[-66.8509514,-25.7809026],[-66.8437815,-25.9717418],[-66.7455268,-26.0632789],[-66.6476584,-26.1097432],[-66.5733505,-26.1845176],[-66.5399409,-26.3522094],[-66.4610851,-26.3641061],[-66.3821412,-26.4167008],[-66.2924266,-26.2294323],[-66.2306071,-26.1492167],[-66.1423303,-26.1591358],[-66.0998,-26.2205],[-66.1189843,-26.3770298],[-66.1780358,-26.4831728],[-66.1722852,-26.6289307],[-66.0437885,-26.6002451],[-65.8325887,-26.7378878],[-65.9005237,-26.8637783],[-65.8576298,-26.9012139],[-65.9777069,-27.0877472],[-66.0547185,-27.144147],[-66.1172569,-27.2663413],[-65.9716988,-27.3339551],[-65.9738231,-27.5026379],[-65.9153724,-27.6690671],[-65.875311,-27.6725067],[-65.8284903,-27.8191133],[-65.7582621,-27.7656618],[-65.6991888,-27.8357451],[-65.667817,-27.9701823],[-65.5758566,-28.0139024],[-65.5008268,-27.9244097],[-65.3606277,-27.8291899],[-65.1710451,-27.9464573],[-65.1124509,-28.186361],[-65.0970547,-28.4711495],[-65.1391839,-28.6572333],[-65.1267704,-28.7163647],[-65.0168463,-28.7387251],[-64.9012978,-28.8385022],[-64.9068004,-28.9316502],[-64.8634699,-29.0160493],[-64.8544848,-29.1981616],[-64.8246906,-29.2740066],[-64.842459,-29.3342365],[-64.7876101,-29.3997135],[-64.8212616,-29.4568459],[-64.8246472,-29.5742646],[-64.9495613,-29.5891419],[-64.8978257,-29.8853692],[-65.118697,-30.0753145],[-65.3987096,-30.1252756],[-65.5452758,-29.8277609],[-65.7191772,-29.4118577],[-65.7483859,-29.2698732],[-65.8145658,-29.2695518],[-65.814712,-29.180995],[-66.0993784,-28.9440161],[-66.3677117,-28.8664816],[-66.4114359,-28.8152729],[-66.3517484,-28.7206463],[-66.4963637,-28.6217549],[-66.4962849,-28.5313414],[-66.5707738,-28.2885086],[-66.9897135,-28.2634316],[-67.075075,-28.2704035],[-67.1558015,-28.3835458],[-67.3766953,-28.3841853],[-67.6852569,-28.3126197],[-67.8022867,-28.3477005],[-67.8946281,-28.2573948],[-67.924465,-28.1101904],[-68.0224514,-28.1247913],[-68.1074453,-28.173396],[-68.1412196,-28.1017961],[-68.2694721,-28.0943004],[-68.3515692,-28.0172301],[-68.4574414,-28.0147485],[-68.4402967,-27.8736416],[-68.5669399,-27.7832206],[-68.7160278,-27.8152039],[-68.7990046,-27.7556903],[-69.0952099,-27.7947586]]]},"properties":{"srid":"4326","id":"153545","name":"Catamarca","localname":"Catamarca","official_name":"","boundary":"administrative","admin_level":"4","note":"","wikidata":"Q44756","wikipedia":"es:Provincia de Catamarca","timestamp":"2019-11-26 10:31:02","rpath":"153545,286393,0","alltags":{"name:el":"Καταμάρκα","name:he":"קטמרקה","name:ja":"カタマルカ州","name:ru":"Катамарка","timezone":"America/Argentina/Catamarca","wikidata":"Q44756","ISO3166-2":"AR-K","wikipedia":"es:Provincia de Catamarca","short_name":"CTM","is_in:country":"Argentina"}}},
{"type":"Feature","geometry":{"type":"Polygon","coordinates":[[[-63.4222977,-25.6490492],[-63.0741094,-25.2436964],[-62.6358599,-24.7361458],[-62.3425498,-24.3920286],[-62.3424597,-24.1089858],[-62.1694862,-24.1682676],[-62.1403747,-24.2204294],[-61.9619476,-24.2313677],[-61.9158558,-24.3013258],[-61.769177,-24.3064756],[-61.6998977,-24.4094465],[-61.6083252,-24.4236063],[-61.5969016,-24.4802735],[-61.5194046,-24.5173514],[-61.4610397,-24.6091538],[-61.2984764,-24.6274126],[-61.2016688,-24.6574014],[-61.1295457,-24.8195456],[-61.0207209,-24.9206225],[-60.9371133,-24.9598469],[-60.9381567,-25.000402],[-60.7762666,-25.0723151],[-60.6607385,-25.1581135],[-60.5338211,-25.1696904],[-60.4441018,-25.2609298],[-60.4246713,-25.3093648],[-60.346456,-25.3388673],[-60.3270124,-25.4003062],[-60.2252598,-25.4833675],[-60.2115006,-25.602918],[-60.1779478,-25.6388671],[-60.0176545,-25.6961067],[-59.9618902,-25.7735561],[-59.8822541,-25.8046144],[-59.7473283,-25.9675459],[-59.6671624,-26.0240174],[-59.6796937,-26.0881706],[-59.5677705,-26.1492069],[-59.4125886,-26.1684668],[-59.3777256,-26.3206825],[-59.2772878,-26.3503467],[-59.1823907,-26.3062745],[-59.078714,-26.360305],[-58.9553089,-26.399356],[-58.8446699,-26.5197363],[-58.7699685,-26.5392181],[-58.7420349,-26.6042356],[-58.6871739,-26.5964612],[-58.6529634,-26.6596958],[-58.5764299,-26.6962729],[-58.4734566,-26.8097874],[-58.3775589,-26.8773263],[-58.4935421,-26.9400886],[-58.5542358,-27.0592061],[-58.5539272,-27.1068117],[-58.6491347,-27.1266248],[-58.6629322,-27.1831885],[-58.5924692,-27.2301589],[-58.5990454,-27.2998427],[-58.7253629,-27.3741635],[-58.7667037,-27.3717634],[-58.8577168,-27.4621789],[-58.8827271,-27.6094003],[-58.8134616,-27.6919253],[-58.8316577,-27.9569926],[-58.8603419,-28.0583006],[-58.9021119,-28.0836019],[-58.8986536,-28.0009761],[-59.7592955,-28.0005264],[-60.8168392,-27.9990608],[-61.7116223,-27.9986392],[-61.7162025,-27.137995],[-61.7166872,-26.6452353],[-61.7162,-25.65],[-62.2234728,-25.6498828],[-62.9667667,-25.6495731],[-63.4222977,-25.6490492]]]},"properties":{"srid":"4326","id":"153554","name":"Chaco","localname":"Chaco","official_name":"","boundary":"administrative","admin_level":"4","note":"","wikidata":"Q44757","wikipedia":"es:Provincia del Chaco","timestamp":"2019-12-03 22:59:01","rpath":"153554,286393,0","alltags":{"name:el":"Τσάκο","name:he":"צ'אקו","name:ja":"チャコ州","name:ru":"Чако","name:uk":"Чако","timezone":"America/Argentina/Cordoba","wikidata":"Q44757","ISO3166-2":"AR-H","wikipedia":"es:Provincia del Chaco","short_name":"CCO","is_in:country":"Argentina"}}},
{"type":"Feature","geometry":{"type":"Polygon","coordinates":[[[-71.7737542,-41.9998326],[-71.1274836,-41.9996079],[-70.3512184,-41.9997127],[-69.4175087,-41.9991336],[-68.5816775,-41.999765],[-68.0855275,-41.9998297],[-67.1905961,-42.0001763],[-66.132587,-42.0003899],[-65.0696544,-42.0003075],[-63.9262784,-42.0028924],[-63.4085825,-42.0034782],[-63.4660516,-42.0796369],[-63.3549644,-42.239888],[-63.3160655,-42.6174378],[-63.3620459,-42.7235395],[-63.3784363,-42.8465305],[-63.4475368,-42.9161436],[-63.6368305,-43.0044013],[-64.072947,-43.0785136],[-64.1469279,-43.1509247],[-64.3342888,-43.2437622],[-64.5782634,-43.3128098],[-64.7714585,-43.3952567],[-64.8072322,-43.4929809],[-65.0589749,-43.7188192],[-65.0255628,-43.839473],[-64.9252581,-43.9712119],[-64.9112336,-44.0492522],[-64.9819899,-44.2389987],[-64.9391487,-44.3804913],[-65.0036219,-44.4961607],[-65.0296872,-44.6080586],[-65.1828898,-44.7405458],[-65.3102953,-44.7881182],[-65.2563393,-44.8566092],[-65.2466483,-44.9633973],[-65.3242651,-45.4892932],[-65.4014607,-45.9999806],[-67.5955311,-46.0000136],[-68.269401,-46.0000038],[-68.9166147,-46.000003],[-70.1622031,-45.9999201],[-71.0287834,-45.9999805],[-71.6477316,-46.0000237],[-71.6142742,-45.9627221],[-71.655753,-45.8861495],[-71.7689529,-45.8464078],[-71.7408546,-45.8072282],[-71.7953861,-45.6647275],[-71.6816192,-45.5138208],[-71.5605321,-45.523648],[-71.4770696,-45.4967837],[-71.5318376,-45.3970337],[-71.3331717,-45.319061],[-71.330924,-45.2502871],[-71.4703332,-45.1482848],[-71.560434,-44.9786302],[-71.6843564,-44.9694192],[-71.8117806,-44.9211963],[-71.9329649,-44.9428372],[-72.0692278,-44.8508407],[-72.0062935,-44.7834152],[-71.8564641,-44.8017683],[-71.7836067,-44.7510002],[-71.6752841,-44.7863735],[-71.494029,-44.7371646],[-71.3958387,-44.7901835],[-71.2763731,-44.8093896],[-71.2070111,-44.7499668],[-71.2354374,-44.6410327],[-71.1212826,-44.5968695],[-71.0917997,-44.532906],[-71.1367787,-44.4694104],[-71.2397571,-44.417687],[-71.3646922,-44.3895794],[-71.654704,-44.4096914],[-71.6948728,-44.3838114],[-71.807311,-44.420359],[-71.84027,-44.3499415],[-71.7908141,-44.3144752],[-71.8072939,-44.1876161],[-71.8517186,-44.129589],[-71.752063,-44.0939501],[-71.6655167,-43.9020318],[-71.7589356,-43.8445343],[-71.7512859,-43.7852699],[-71.6105221,-43.700991],[-71.6078448,-43.6283591],[-71.6898305,-43.6265507],[-71.8888501,-43.4500555],[-71.8966656,-43.3201497],[-71.731689,-43.307372],[-71.7606185,-43.1647362],[-71.8876389,-43.1265934],[-71.9445365,-43.0461772],[-72.0362606,-43.0136279],[-72.1428109,-42.8979012],[-72.1649237,-42.7988847],[-72.1290801,-42.7325669],[-72.1796415,-42.6977623],[-72.0960273,-42.6420353],[-72.1035226,-42.6002948],[-72.0279784,-42.5149168],[-72.0230002,-42.4176648],[-72.1332068,-42.3841996],[-72.168079,-42.2604894],[-72.1728838,-42.1404313],[-72.0490301,-42.1159205],[-71.9270021,-42.1898243],[-71.7302423,-42.1221803],[-71.7737542,-41.9998326]]]},"properties":{"srid":"4326","id":"153548","name":"Chubut","localname":"Chubut","official_name":"","boundary":"administrative","admin_level":"4","note":"","wikidata":"Q45007","wikipedia":"es:Provincia del Chubut","timestamp":"2019-11-28 22:59:02","rpath":"153548,286393,0","alltags":{"name:ar":"شوبوت","name:el":"Τσουμπούτ","name:fa":"چوبوت","name:he":"צ'ובוט","name:ja":"チュブ州","name:ru":"Чубут","name:uk":"Чубут","name:ur":"چوبوت","name:azb":"چوبوت","name:pnb":"چوبوت","wikidata":"Q45007","ISO3166-2":"AR-U","wikipedia":"es:Provincia del Chubut","short_name":"CHB","alt_name:ar":"تشوبوت","is_in:country":"Argentina"}}},
{"type":"Feature","geometry":{"type":"Polygon","coordinates":[[[-65.3987096,-30.1252756],[-65.118697,-30.0753145],[-64.8978257,-29.8853692],[-64.9495613,-29.5891419],[-64.8246472,-29.5742646],[-64.2746077,-29.4987563],[-63.9814105,-29.5508479],[-63.9623148,-29.6235807],[-63.8738507,-29.6307334],[-63.8408677,-29.5794135],[-63.7485175,-29.6521153],[-63.465366,-29.6644718],[-63.4596575,-29.7568953],[-62.8063728,-29.8340106],[-62.8348982,-29.8535975],[-62.7867387,-29.96397],[-62.6623429,-29.9977435],[-62.6757103,-30.0355888],[-62.5565657,-30.0632261],[-62.6009314,-30.1925763],[-62.5653062,-30.2880358],[-62.1704675,-30.2811426],[-62.1305922,-30.4799264],[-61.8429364,-30.7463256],[-62.1271395,-31.6165162],[-62.2403504,-31.6993781],[-62.2174073,-31.7405751],[-62.2223775,-31.8837305],[-62.1674595,-31.9851554],[-62.1967936,-32.1146411],[-62.127617,-32.2092732],[-62.0440199,-32.2575123],[-62.0116747,-32.3472771],[-61.9129668,-32.5002104],[-61.8900713,-32.6136142],[-61.9466178,-32.6784541],[-61.8577515,-32.6945416],[-61.7959817,-32.7736848],[-61.7723145,-32.913056],[-61.7878819,-33.0062927],[-61.9203523,-33.1202006],[-62.4112758,-33.768747],[-62.8840813,-34.3863745],[-63.3912994,-34.386455],[-63.3826793,-34.8185602],[-63.3855874,-35.0022588],[-64.588279,-35.0116095],[-65.1050003,-35.0153678],[-65.1087484,-34.7435363],[-65.1116818,-33.8747697],[-65.142633,-33.1944581],[-65.0545979,-33.1149807],[-64.9988263,-33.0029924],[-64.9689389,-32.7996124],[-64.900333,-32.5749322],[-64.9468589,-32.5166919],[-64.9349928,-32.3331238],[-65.0869862,-32.3135286],[-65.2089864,-32.3242169],[-65.2106386,-32.2351835],[-65.2451068,-32.0897361],[-65.3126477,-32.0420679],[-65.6276184,-31.898895],[-65.7699108,-31.8890843],[-65.7714794,-31.0433971],[-65.5192394,-30.4764835],[-65.3987096,-30.1252756]]]},"properties":{"srid":"4326","id":"3592494","name":"Córdoba","localname":"Córdoba","official_name":"Provincia de Córdoba","boundary":"administrative","admin_level":"4","note":"","wikidata":"Q44759","wikipedia":"es:Provincia de Córdoba (Argentina)","timestamp":"2019-12-14 22:58:01","rpath":"3592494,286393,0","alltags":{"name:el":"Κόρδοβα","name:en":"Córdoba","name:ja":"コルドバ州","name:pl":"Córdoba","name:pt":"Córdova","name:ru":"Кордова","name:uk":"Кордова","timezone":"America/Argentina/Cordoba","wikidata":"Q44759","ISO3166-2":"AR-X","wikipedia":"es:Provincia de Córdoba (Argentina)","short_name":"Cba.","is_in:country":"Argentina","official_name":"Provincia de Córdoba"}}},
{"type":"Feature","geometry":{"type":"MultiPolygon","coordinates":[[[[-59.6744994,-30.3444309],[-59.6151166,-30.1013831],[-59.5680814,-30.0104526],[-59.6607785,-29.821491],[-59.6137433,-29.7416327],[-59.6315961,-29.6909434],[-59.6031003,-29.5835168],[-59.6319394,-29.533644],[-59.5811276,-29.454155],[-59.6018347,-29.3913474],[-59.5109687,-29.3394731],[-59.5141797,-29.2683386],[-59.3994813,-29.217474],[-59.3462949,-29.118482],[-59.2178922,-29.058178],[-59.1395734,-28.7843713],[-59.0805631,-28.6651934],[-59.1172414,-28.5859363],[-59.0472444,-28.4942955],[-59.1107791,-28.2353251],[-59.0751378,-28.136166],[-58.9806598,-28.1357656],[-58.9021119,-28.0836019],[-58.8603419,-28.0583006],[-58.8316577,-27.9569926],[-58.8134616,-27.6919253],[-58.8827271,-27.6094003],[-58.8577168,-27.4621789],[-58.7667037,-27.3717634],[-58.7253629,-27.3741635],[-58.5990454,-27.2998427],[-58.4892248,-27.2733164],[-58.4134127,-27.2866661],[-58.2530491,-27.2596823],[-58.169184,-27.2763866],[-58.0596311,-27.2622511],[-57.8748172,-27.2752663],[-57.8145,-27.3341603],[-57.7020444,-27.324545],[-57.6080936,-27.3913447],[-57.4875448,-27.4441777],[-57.3116369,-27.4180505],[-57.2317737,-27.4664306],[-57.0425175,-27.4808522],[-56.965644,-27.5020249],[-56.9422202,-27.5583166],[-56.8492592,-27.606299],[-56.7471342,-27.6049858],[-56.6765225,-27.5504866],[-56.7210803,-27.4681463],[-56.6066405,-27.4314002],[-56.5420234,-27.4383486],[-56.4629132,-27.5695814],[-56.4008319,-27.5991895],[-56.2936973,-27.4940853],[-56.2943194,-27.4200303],[-56.1493086,-27.3279337],[-56.0242666,-27.3242585],[-56.0547452,-27.4509015],[-55.9817652,-27.5388864],[-55.8359763,-27.7835859],[-55.8021435,-27.9742162],[-55.6977162,-28.0896171],[-55.6202071,-28.1375453],[-55.6265903,-28.1709181],[-55.7759749,-28.2710076],[-55.6699096,-28.3308364],[-55.7389705,-28.376643],[-55.8512692,-28.3549484],[-55.9026604,-28.4122247],[-55.8811919,-28.4696209],[-56.022023,-28.5198541],[-56.0019242,-28.5959118],[-56.1185841,-28.6817179],[-56.1918283,-28.7736262],[-56.3011936,-28.8154722],[-56.301992,-28.901101],[-56.3905226,-28.9551607],[-56.425277,-29.0818262],[-56.5914201,-29.1241797],[-56.6437875,-29.1960686],[-56.6480791,-29.2585382],[-56.7016374,-29.3591283],[-56.7661821,-29.3776787],[-56.8190538,-29.4881631],[-56.8988764,-29.5317855],[-56.9666863,-29.6295402],[-57.1209121,-29.7649367],[-57.2419121,-29.7879367],[-57.3261841,-29.8761153],[-57.328,-29.972],[-57.4140321,-30.0368425],[-57.4804651,-30.123146],[-57.6540046,-30.1955772],[-57.6152444,-30.2557773],[-57.6432896,-30.3423754],[-57.8883614,-30.5087598],[-57.8092299,-30.7296717],[-58.0131118,-30.6126855],[-58.0688863,-30.5453846],[-58.070597,-30.4302739],[-58.145743,-30.3972343],[-58.2087254,-30.2872754],[-58.2965505,-30.2451745],[-58.3651268,-30.2663326],[-58.4624148,-30.2064719],[-58.5864756,-30.1589616],[-58.6678967,-30.164045],[-58.7548185,-30.2158362],[-58.9015171,-30.2482911],[-59.0071103,-30.2194213],[-59.0667626,-30.2391338],[-59.1363349,-30.3111532],[-59.251426,-30.3650595],[-59.4190367,-30.3160734],[-59.5450689,-30.3399768],[-59.5831252,-30.4268392],[-59.6744994,-30.3444309]]],[[[-57.0318,-27.4807817],[-56.8850123,-27.424556],[-56.7699698,-27.5020727],[-56.7490223,-27.5614999],[-56.8735,-27.5815],[-56.970343,-27.4920713],[-57.0318,-27.4807817]]]]},"properties":{"srid":"4326","id":"153552","name":"Corrientes","localname":"Corrientes","official_name":"","boundary":"administrative","admin_level":"4","note":"","wikidata":"Q44758","wikipedia":"es:Provincia de Corrientes","timestamp":"2019-11-26 10:31:02","rpath":"153552,286393,0","alltags":{"name:el":"Κορριέντες","name:he":"קוריינטס","name:ja":"コリエンテス州","name:ru":"Корриентес","name:uk":"Коррієнтес","timezone":"America/Argentina/Cordoba","wikidata":"Q44758","ISO3166-2":"AR-W","wikipedia":"es:Provincia de Corrientes","population":"314546","short_name":"Ctes.","is_in:country":"Argentina"}}},
{"type":"Feature","geometry":{"type":"Polygon","coordinates":[[[-59.6744994,-30.3444309],[-59.5831252,-30.4268392],[-59.5450689,-30.3399768],[-59.4190367,-30.3160734],[-59.251426,-30.3650595],[-59.1363349,-30.3111532],[-59.0667626,-30.2391338],[-59.0071103,-30.2194213],[-58.9015171,-30.2482911],[-58.7548185,-30.2158362],[-58.6678967,-30.164045],[-58.5864756,-30.1589616],[-58.4624148,-30.2064719],[-58.3651268,-30.2663326],[-58.2965505,-30.2451745],[-58.2087254,-30.2872754],[-58.145743,-30.3972343],[-58.070597,-30.4302739],[-58.0688863,-30.5453846],[-58.0131118,-30.6126855],[-57.8092299,-30.7296717],[-57.7992661,-30.8530636],[-57.8217799,-30.9077757],[-57.9150009,-30.9208687],[-57.8614354,-31.032541],[-57.9165316,-31.1223397],[-57.9130554,-31.2117737],[-57.9968262,-31.3602426],[-57.9798478,-31.3894586],[-58.0814121,-31.4545674],[-58.0037947,-31.5319021],[-57.9809946,-31.5904783],[-58.0383307,-31.759526],[-58.0844516,-31.8199851],[-58.2067713,-31.8710765],[-58.1383073,-32.0018165],[-58.1798137,-32.165351],[-58.1089899,-32.239949],[-58.1032174,-32.3096118],[-58.181858,-32.3744131],[-58.2040751,-32.4648019],[-58.1602975,-32.5724251],[-58.1501944,-32.7271723],[-58.120714,-32.8116054],[-58.1144142,-32.9238523],[-58.084289,-33.0009615],[-58.175869,-33.0768619],[-58.3602942,-33.1201998],[-58.404412,-33.1804007],[-58.3905663,-33.2767675],[-58.4318698,-33.3661533],[-58.4434257,-33.5376432],[-58.4938031,-33.5814646],[-58.4347009,-33.7203792],[-58.4235671,-33.9162984],[-58.3873832,-33.9854186],[-58.6333809,-34.0391882],[-58.747554,-33.9545447],[-58.862312,-33.9391412],[-58.8965533,-33.8919606],[-59.0425565,-33.8351143],[-59.1187741,-33.8493721],[-59.1721337,-33.8062638],[-59.2480358,-33.8046148],[-59.2569093,-33.7233747],[-59.3975522,-33.7366711],[-59.5365374,-33.6358229],[-59.613589,-33.6892065],[-59.6428178,-33.6354532],[-59.7763253,-33.6084891],[-59.8249887,-33.5318507],[-59.939836,-33.4721249],[-60.0411661,-33.4481117],[-60.2602234,-33.2616119],[-60.2838493,-33.2010444],[-60.4966235,-33.1307052],[-60.6668164,-32.9119282],[-60.7224347,-32.7570179],[-60.7140233,-32.6825498],[-60.7706072,-32.5218668],[-60.7186104,-32.4313742],[-60.7368422,-32.343784],[-60.6833818,-32.3240038],[-60.6732417,-32.2335314],[-60.7043982,-32.1466573],[-60.6628355,-32.0960198],[-60.6938128,-31.9463844],[-60.6522252,-31.8977996],[-60.676868,-31.8199418],[-60.6362317,-31.7421237],[-60.5690389,-31.6996014],[-60.4764755,-31.6980887],[-60.3354077,-31.6073968],[-60.3137587,-31.5379418],[-60.2468305,-31.5310507],[-60.1119046,-31.4080638],[-60.0923352,-31.2951841],[-60.0041013,-31.2388402],[-59.8156171,-30.9421894],[-59.7596555,-30.8997772],[-59.6278195,-30.6948158],[-59.6607785,-30.6295496],[-59.6525388,-30.485868],[-59.6988873,-30.4213492],[-59.6744994,-30.3444309]]]},"properties":{"srid":"4326","id":"153551","name":"Entre Ríos Province","localname":"Entre Ríos","official_name":"Provincia de Entre Ríos","boundary":"administrative","admin_level":"4","note":"","wikidata":"Q44762","wikipedia":"es:Provincia de Entre Ríos","timestamp":"2019-11-26 10:31:02","rpath":"153551,286393,0","alltags":{"name:ar":"إنتري ريوس","name:ay":"Entre Ríos jisk'a suyu","name:az":"Entre-Rios","name:be":"Энтрэ-Рыас","name:bg":"Ентре Риос","name:el":"Έντρε Ρίος","name:en":"Entre Ríos Province","name:eo":"Provinco Entre Ríos","name:eu":"Entre Ríosko probintzia","name:fa":"استان انتره ریوس","name:fi":"Entre Ríosin maakunta","name:fr":"Province d'Entre Ríos","name:gl":"Provincia de Entre Ríos","name:he":"אנטרה ריוס","name:hi":"एन्ट्रे रियोस","name:hu":"Entre Ríos tartomány","name:hy":"Էնտրե Ռիոս","name:id":"Provinsi Entre Ríos","name:io":"Provinco Entre Ríos","name:it":"Provincia di Entre Ríos","name:ja":"エントレ・リオス州","name:ka":"ენტრე-რიოსის პროვინცია","name:ko":"엔트레리오스주","name:lt":"Entre Rioso provincija","name:lv":"Entreriosas province","name:mk":"Ентре Риос","name:mr":"एंत्रे रियोस","name:ms":"Wilayah Entre Ríos","name:nl":"Entre Ríos","name:os":"Энтре-Риос","name:pl":"Entre Ríos","name:pt":"Entre Ríos","name:qu":"Entre Ríos wamani","name:ro":"Provincia Entre Ríos","name:ru":"Междуречье","name:sr":"Ентре Риос","name:sw":"Mkoa wa Entre Ríos","name:tg":"Энтре-Риос","name:th":"รัฐเอนเตรริโอส","name:tl":"Lalawigan ng Entre Ríos","name:tr":"Entre Ríos","name:tt":"Энтре-Риос","name:uk":"Ентре-Ріос","name:ur":"صوبہ انترے ریوس","name:vi":"Entre Ríos","name:zh":"恩特雷里奥斯省","timezone":"America/Argentina/Cordoba","wikidata":"Q44762","ISO3166-2":"AR-E","wikipedia":"es:Provincia de Entre Ríos","short_name":"ER.","is_in:country":"Argentina","official_name":"Provincia de Entre Ríos"}}},
{"type":"Feature","geometry":{"type":"Polygon","coordinates":[[[-62.3424597,-24.1089858],[-62.3421761,-23.1553747],[-62.3419758,-22.4774922],[-62.2280091,-22.5442821],[-62.2546724,-22.6113139],[-62.1347896,-22.791447],[-62.0139565,-22.9030566],[-61.9849039,-23.0195973],[-61.753225,-23.1727689],[-61.7361189,-23.234317],[-61.6270285,-23.2776601],[-61.501111,-23.410556],[-61.3253195,-23.4663733],[-61.219722,-23.5575],[-61.0958261,-23.6128027],[-61.08056,-23.6908307],[-60.9898984,-23.8180803],[-60.921389,-23.823056],[-60.859444,-23.869444],[-60.732222,-23.872222],[-60.595243,-23.9173272],[-60.5719126,-23.9600648],[-60.4874216,-23.9507913],[-60.3088336,-24.0379792],[-60.1972351,-24.0448373],[-60.0391409,-24.0115716],[-59.4743574,-24.3313719],[-59.3539651,-24.4782116],[-59.1860198,-24.5633825],[-59.1300783,-24.6170097],[-58.9704526,-24.6631811],[-58.8040712,-24.7736508],[-58.7260662,-24.7746189],[-58.6724285,-24.8319249],[-58.5730771,-24.8211449],[-58.4404906,-24.8795795],[-58.3409422,-24.9965794],[-58.2358428,-24.9272097],[-58.1343986,-25.0102134],[-58.0104546,-25.0381027],[-57.9885402,-25.0817257],[-57.8825311,-25.0760532],[-57.776734,-25.1552539],[-57.6987318,-25.3167209],[-57.5549982,-25.4484028],[-57.5796701,-25.568892],[-57.6704355,-25.6503499],[-57.7406439,-25.6504501],[-57.8347288,-25.9163368],[-57.8911199,-25.9661983],[-57.8557369,-26.0091434],[-58.0416462,-26.1124629],[-58.0847332,-26.1118463],[-58.1580723,-26.2604212],[-58.165414,-26.3572883],[-58.2210323,-26.4140325],[-58.1818935,-26.4609138],[-58.2232639,-26.5306624],[-58.1969997,-26.6536177],[-58.2613727,-26.6464067],[-58.2460305,-26.7425608],[-58.3775589,-26.8773263],[-58.4734566,-26.8097874],[-58.5764299,-26.6962729],[-58.6529634,-26.6596958],[-58.6871739,-26.5964612],[-58.7420349,-26.6042356],[-58.7699685,-26.5392181],[-58.8446699,-26.5197363],[-58.9553089,-26.399356],[-59.078714,-26.360305],[-59.1823907,-26.3062745],[-59.2772878,-26.3503467],[-59.3777256,-26.3206825],[-59.4125886,-26.1684668],[-59.5677705,-26.1492069],[-59.6796937,-26.0881706],[-59.6671624,-26.0240174],[-59.7473283,-25.9675459],[-59.8822541,-25.8046144],[-59.9618902,-25.7735561],[-60.0176545,-25.6961067],[-60.1779478,-25.6388671],[-60.2115006,-25.602918],[-60.2252598,-25.4833675],[-60.3270124,-25.4003062],[-60.346456,-25.3388673],[-60.4246713,-25.3093648],[-60.4441018,-25.2609298],[-60.5338211,-25.1696904],[-60.6607385,-25.1581135],[-60.7762666,-25.0723151],[-60.9381567,-25.000402],[-60.9371133,-24.9598469],[-61.0207209,-24.9206225],[-61.1295457,-24.8195456],[-61.2016688,-24.6574014],[-61.2984764,-24.6274126],[-61.4610397,-24.6091538],[-61.5194046,-24.5173514],[-61.5969016,-24.4802735],[-61.6083252,-24.4236063],[-61.6998977,-24.4094465],[-61.769177,-24.3064756],[-61.9158558,-24.3013258],[-61.9619476,-24.2313677],[-62.1403747,-24.2204294],[-62.1694862,-24.1682676],[-62.3424597,-24.1089858]]]},"properties":{"srid":"4326","id":"2849847","name":"Formosa","localname":"Formosa","official_name":"","boundary":"administrative","admin_level":"4","note":"","wikidata":"Q44761","wikipedia":"es:Provincia de Formosa","timestamp":"2019-12-10 15:09:02","rpath":"2849847,286393,0","alltags":{"name:el":"Φορμόσα","name:he":"פורמוסה","name:ja":"フォルモサ州","name:ru":"Формоса","name:uk":"Формоса","timezone":"America/Argentina/Cordoba","wikidata":"Q44761","ISO3166-2":"AR-P","wikipedia":"es:Provincia de Formosa","population":"234354","short_name":"FSA","is_in:country":"Argentina"}}},
{"type":"Feature","geometry":{"type":"Polygon","coordinates":[[[-67.212916,-23.6945116],[-66.9905186,-23.0004359],[-67.1806564,-22.8138031],[-67.1280494,-22.7218684],[-67.0136973,-22.6550156],[-67.0282745,-22.5408923],[-66.7824705,-22.4377782],[-66.7391077,-22.2381823],[-66.6864451,-22.2093329],[-66.3558514,-22.1306484],[-66.2879258,-22.0860535],[-66.2825767,-21.9822076],[-66.236345,-21.8482162],[-66.240477,-21.7886829],[-66.0758854,-21.8349292],[-66.0476933,-21.9188571],[-65.9246111,-21.9335277],[-65.8048372,-22.0751211],[-65.7476388,-22.10912],[-65.4709892,-22.0891053],[-65.187155,-22.0847882],[-65.2819161,-22.4133137],[-65.347714,-22.5255057],[-65.3506485,-22.6021836],[-65.2713182,-22.6495674],[-65.3019876,-22.7139174],[-65.2743073,-22.7898756],[-65.273441,-22.8950652],[-65.0682235,-23.0413368],[-65.0462244,-23.1532924],[-65.0771413,-23.2320094],[-65.021934,-23.2788691],[-64.9573517,-23.2819399],[-64.8994792,-23.334341],[-64.8740476,-23.4729435],[-64.7831358,-23.4933198],[-64.6837446,-23.4553779],[-64.5367147,-23.5227588],[-64.4419396,-23.6373624],[-64.3910919,-23.6017927],[-64.3525264,-23.5174972],[-64.156251,-23.5188443],[-64.160697,-24.0721629],[-64.1506698,-24.1363884],[-64.1818457,-24.2645794],[-64.3181405,-24.4272118],[-64.4159832,-24.3976567],[-64.4546104,-24.4640953],[-64.5416393,-24.5169895],[-64.5946109,-24.6129597],[-64.6829982,-24.59086],[-64.7258921,-24.5296023],[-64.8428613,-24.466996],[-64.9285561,-24.5991373],[-65.0792313,-24.5621807],[-65.1825642,-24.4647092],[-65.3465079,-24.497258],[-65.3577904,-24.462419],[-65.4868537,-24.4274234],[-65.5433303,-24.4486465],[-65.6536277,-24.3787352],[-65.6730975,-24.2470889],[-65.7254935,-24.1868865],[-65.7540214,-24.0559772],[-65.8695173,-24.0028567],[-65.9910107,-23.9817042],[-66.0220814,-23.8617422],[-65.9872882,-23.5097627],[-66.1771461,-23.4144018],[-66.316807,-23.5736908],[-66.3789484,-23.7489713],[-66.3570689,-23.8230554],[-66.3672709,-23.958964],[-66.3517296,-24.0203971],[-66.3777306,-24.1166442],[-66.4206276,-24.1617903],[-66.5436777,-24.2076475],[-66.6368321,-24.1768473],[-66.7459559,-24.0895786],[-66.830268,-24.0646009],[-66.8817779,-23.9955318],[-66.9496922,-23.9671092],[-67.0032626,-23.8799071],[-67.212916,-23.6945116]]]},"properties":{"srid":"4326","id":"153556","name":"Jujuy","localname":"Jujuy","official_name":"","boundary":"administrative","admin_level":"4","note":"","wikidata":"Q44764","wikipedia":"es:Provincia de Jujuy","timestamp":"2019-11-26 10:31:02","rpath":"153556,286393,0","alltags":{"name:el":"Χουχούι","name:he":"חוחוי","name:ja":"フフイ州","name:ru":"Жужуй","name:uk":"Жужуй","timezone":"America/Argentina/Jujuy","wikidata":"Q44764","ISO3166-2":"AR-Y","wikipedia":"es:Provincia de Jujuy","short_name":"JJY","alt_name:ru":"Хухуй","is_in:country":"Argentina"}}},
{"type":"Feature","geometry":{"type":"Polygon","coordinates":[[[-66.6377828,-36.0006312],[-65.8539615,-36.0000014],[-65.1078587,-35.9990851],[-65.1050003,-35.0153678],[-64.588279,-35.0116095],[-63.3855874,-35.0022588],[-63.3858503,-35.5785318],[-63.3853551,-36.0516107],[-63.3851251,-36.6662392],[-63.3853593,-37.4396402],[-63.3856726,-37.8600702],[-63.3849149,-38.7072643],[-63.3832641,-39.32873],[-63.5368234,-39.297909],[-63.7330582,-39.1858428],[-63.7575656,-39.1286832],[-63.9014488,-39.105383],[-64.0100351,-39.0026603],[-64.0834511,-38.9899172],[-64.3669191,-38.8826299],[-64.8104094,-38.8164119],[-64.9573174,-38.823197],[-65.1597753,-38.8034458],[-65.3752499,-38.8560417],[-65.3892534,-38.8312786],[-65.5680931,-38.7850452],[-65.6518512,-38.8273608],[-66.1325194,-38.7394558],[-66.3468865,-38.7564041],[-66.5346897,-38.7207825],[-66.6058581,-38.6797517],[-66.5779157,-38.6229297],[-66.6093834,-38.5578657],[-66.9050858,-38.4432164],[-66.9947641,-38.4462323],[-67.1387073,-38.3607005],[-67.1836337,-38.2234402],[-67.4370182,-38.2538537],[-67.5957064,-38.2334087],[-67.6557009,-38.2013147],[-67.7304425,-38.076052],[-67.8264039,-38.0636569],[-67.9016586,-37.9811567],[-67.8474168,-37.9178891],[-67.7298888,-37.850775],[-67.7219445,-37.797249],[-67.7705161,-37.6705693],[-67.8349278,-37.6243735],[-67.9467702,-37.6032502],[-68.2549427,-37.5711073],[-68.2500096,-36.9697009],[-68.2504254,-36.173761],[-68.2964157,-36.1731752],[-68.2960209,-35.9975667],[-67.6965587,-36.0000273],[-66.6377828,-36.0006312]]]},"properties":{"srid":"4326","id":"153541","name":"La Pampa","localname":"La Pampa","official_name":"","boundary":"administrative","admin_level":"4","note":"","wikidata":"Q44795","wikipedia":"es:Provincia de La Pampa","timestamp":"2019-11-26 10:31:02","rpath":"153541,286393,0","alltags":{"name:el":"Λα Πάμπα","name:he":"לה פמפה","name:ja":"ラ・パンパ州","name:ru":"Ла-Пампа","name:uk":"Ла-Пампа","timezone":"America/Argentina/Salta","wikidata":"Q44795","ISO3166-2":"AR-L","wikipedia":"es:Provincia de La Pampa","short_name":"LP","is_in:country":"Argentina"}}},
{"type":"Feature","geometry":{"type":"Polygon","coordinates":[[[-69.633645,-28.3889219],[-69.532345,-28.3346373],[-69.4567893,-28.1835745],[-69.3276167,-28.1555059],[-69.2673035,-28.0102869],[-69.1820098,-27.9718932],[-69.1341249,-27.9091701],[-69.0952099,-27.7947586],[-68.7990046,-27.7556903],[-68.7160278,-27.8152039],[-68.5669399,-27.7832206],[-68.4402967,-27.8736416],[-68.4574414,-28.0147485],[-68.3515692,-28.0172301],[-68.2694721,-28.0943004],[-68.1412196,-28.1017961],[-68.1074453,-28.173396],[-68.0224514,-28.1247913],[-67.924465,-28.1101904],[-67.8946281,-28.2573948],[-67.8022867,-28.3477005],[-67.6852569,-28.3126197],[-67.3766953,-28.3841853],[-67.1558015,-28.3835458],[-67.075075,-28.2704035],[-66.9897135,-28.2634316],[-66.5707738,-28.2885086],[-66.4962849,-28.5313414],[-66.4963637,-28.6217549],[-66.3517484,-28.7206463],[-66.4114359,-28.8152729],[-66.3677117,-28.8664816],[-66.0993784,-28.9440161],[-65.814712,-29.180995],[-65.8145658,-29.2695518],[-65.7483859,-29.2698732],[-65.7191772,-29.4118577],[-65.5452758,-29.8277609],[-65.3987096,-30.1252756],[-65.5192394,-30.4764835],[-65.7714794,-31.0433971],[-65.7699108,-31.8890843],[-65.9153804,-31.909848],[-65.9792486,-31.8891634],[-66.1584343,-31.9636445],[-66.3327097,-31.9380801],[-66.3550085,-31.9904801],[-66.6612706,-31.923595],[-66.716642,-31.8426599],[-66.8151598,-31.7868389],[-66.8666436,-31.6333585],[-66.9499682,-31.6333162],[-67.0340758,-31.5897276],[-67.0208298,-31.5189461],[-67.0798139,-31.4609294],[-67.0999903,-31.3833306],[-67.0666284,-31.0833422],[-67.1165982,-31.0166348],[-67.0834448,-30.916584],[-67.1385054,-30.7996306],[-67.272159,-30.5862011],[-67.4720021,-30.556219],[-67.5807843,-30.4062239],[-67.5896606,-30.298484],[-67.6860392,-30.2150916],[-67.8542144,-30.1001972],[-67.9912698,-29.9858051],[-68.0524146,-29.9013282],[-68.1804862,-29.8561932],[-68.1989701,-29.7810774],[-68.3399105,-29.7049023],[-68.4816592,-29.6502055],[-68.6861237,-29.6411359],[-68.7930847,-29.6222665],[-68.9343687,-29.6253527],[-69.01326,-29.6481911],[-69.0305902,-29.5235537],[-68.9727045,-29.4436928],[-69.0002,-29.1844],[-68.9176615,-29.0694308],[-68.9598,-28.9542],[-68.9296193,-28.8402082],[-69.1603354,-28.7655218],[-69.1997299,-28.7072369],[-69.2140935,-28.6028498],[-69.1835258,-28.5869292],[-69.3249655,-28.4237531],[-69.4301178,-28.4510378],[-69.4701867,-28.4149695],[-69.6060949,-28.4191953],[-69.633645,-28.3889219]]]},"properties":{"srid":"4326","id":"153536","name":"La Rioja","localname":"La Rioja","official_name":"","boundary":"administrative","admin_level":"4","note":"","wikidata":"Q44796","wikipedia":"es:Provincia de La Rioja (Argentina)","timestamp":"2019-12-03 22:59:01","rpath":"153536,286393,0","alltags":{"name:he":"לה ריוחה","name:ja":"ラ・リオハ州","name:ru":"Ла-Риоха","timezone":"America/Argentina/La_Rioja","wikidata":"Q44796","ISO3166-2":"AR-F","wikipedia":"es:Provincia de La Rioja (Argentina)","short_name":"LR","is_in:country":"Argentina"}}},
{"type":"Feature","geometry":{"type":"Polygon","coordinates":[[[-70.125877,-32.5763921],[-70.0633272,-32.626124],[-70.0030432,-32.5291273],[-69.8247612,-32.564135],[-69.7057136,-32.4974527],[-69.6976487,-32.4097937],[-69.7252096,-32.3166313],[-69.618616,-32.2371902],[-69.5968412,-32.1414471],[-69.5354002,-32.1416355],[-69.4556492,-32.0746346],[-69.3142091,-32.0911287],[-69.2444984,-32.0161073],[-69.1284228,-31.9994441],[-69.0167523,-32.1132666],[-68.916687,-32.1314806],[-68.916882,-32.3367765],[-68.6654739,-32.3367059],[-68.4629,-32.2377],[-68.4630444,-32.1378415],[-68.3010745,-32.137918],[-68.2478299,-32.091599],[-68.151981,-32.1193286],[-68.0596057,-32.0738474],[-67.9822401,-32.0923644],[-67.8359738,-32.2224407],[-67.7233741,-32.2422598],[-67.5253769,-32.2279091],[-67.4524478,-32.3187424],[-67.3299053,-32.3587447],[-67.2939288,-32.4963439],[-67.2256534,-32.6810473],[-67.1879276,-32.6972646],[-67.1777005,-32.8197327],[-67.2319997,-32.8644833],[-67.1845155,-33.015379],[-67.182559,-33.1994694],[-67.1358201,-33.4649625],[-67.0028234,-33.6302305],[-66.9576682,-33.7227865],[-66.8917769,-33.766402],[-66.8738653,-33.8324035],[-66.6882189,-33.9378644],[-66.7291975,-34.2084019],[-66.785475,-34.2337153],[-66.8035231,-34.3074703],[-66.7894107,-34.4204255],[-66.7543086,-34.4429178],[-66.7652075,-34.5509095],[-66.6434937,-34.7640678],[-66.5633104,-34.8286857],[-66.5210738,-35.0642351],[-66.4778557,-35.1409015],[-66.4841469,-35.2406455],[-66.5290999,-35.4463887],[-66.5229054,-35.5071275],[-66.5699986,-35.5826204],[-66.5487275,-35.6434772],[-66.6219669,-35.8485665],[-66.6377828,-36.0006312],[-67.6965587,-36.0000273],[-68.2960209,-35.9975667],[-68.2964157,-36.1731752],[-68.2504254,-36.173761],[-68.2500096,-36.9697009],[-68.2549427,-37.5711073],[-68.4382501,-37.5438075],[-68.4960759,-37.4590703],[-68.6863812,-37.4416668],[-68.7671108,-37.3665508],[-68.8675645,-37.3941419],[-68.9766956,-37.378615],[-69.0451051,-37.3344716],[-69.0646258,-37.2234015],[-69.2727571,-37.1446547],[-69.4017652,-37.1724678],[-69.5285372,-37.1744132],[-69.7540728,-37.0706232],[-69.7784293,-36.915918],[-69.7583449,-36.8764366],[-69.9210799,-36.795239],[-69.9467915,-36.7227831],[-70.0454005,-36.6569152],[-70.2044338,-36.4394791],[-70.2202374,-36.3321107],[-70.3438604,-36.3333769],[-70.394581,-36.1951399],[-70.398615,-36.0529199],[-70.3714389,-36.0433823],[-70.4209056,-35.8742248],[-70.3155055,-35.8188444],[-70.4178432,-35.6298289],[-70.3866946,-35.6042125],[-70.4464281,-35.4639426],[-70.4186236,-35.3544114],[-70.5828973,-35.2799927],[-70.5424487,-35.2025436],[-70.4704568,-35.2030772],[-70.3620326,-35.1364506],[-70.3754222,-35.0461351],[-70.2568239,-34.8204216],[-70.3091609,-34.7681026],[-70.2144235,-34.6807881],[-70.2230066,-34.6398406],[-70.1034152,-34.4821232],[-70.0151813,-34.4130422],[-70.0309444,-34.2880534],[-69.9315422,-34.2813414],[-69.7950714,-34.2430356],[-69.7916382,-34.2007373],[-69.8688858,-34.1403756],[-69.8393616,-34.0070491],[-69.891964,-33.9251166],[-69.9041723,-33.7714281],[-69.8199377,-33.4324667],[-69.7704993,-33.3610951],[-69.7997459,-33.2882664],[-69.9172604,-33.2668868],[-70.0028229,-33.3229353],[-70.0642884,-33.2051829],[-70.0808913,-33.0291924],[-70.0212969,-33.0078171],[-70.0012147,-32.8845979],[-70.1080069,-32.8002976],[-70.1703805,-32.6255496],[-70.125877,-32.5763921]]]},"properties":{"srid":"4326","id":"153540","name":"Mendoza","localname":"Mendoza","official_name":"","boundary":"administrative","admin_level":"4","note":"","wikidata":"Q44797","wikipedia":"es:Provincia de Mendoza","timestamp":"2019-12-02 23:30:02","rpath":"153540,286393,0","alltags":{"name:el":"Μεντόζα","name:he":"מנדוסה","name:ja":"メンドーサ州","name:ru":"Мендоса","timezone":"America/Argentina/Mendoza","wikidata":"Q44797","ISO3166-2":"AR-M","wikipedia":"es:Provincia de Mendoza","short_name":"Mza.","is_in:country":"Argentina"}}},
{"type":"Feature","geometry":{"type":"Polygon","coordinates":[[[-56.0242666,-27.3242585],[-55.896275,-27.342731],[-55.8395485,-27.4070359],[-55.7369151,-27.4451581],[-55.6830095,-27.3784658],[-55.5989306,-27.3374995],[-55.5809917,-27.2349072],[-55.6132546,-27.1673099],[-55.5625115,-27.1082974],[-55.4773944,-27.1106686],[-55.4228368,-26.9952806],[-55.3704028,-26.9644223],[-55.2381632,-26.9423718],[-55.1351016,-26.9485829],[-55.1433414,-26.8683713],[-55.0523608,-26.7972966],[-54.963714,-26.7873358],[-54.9411243,-26.6826256],[-54.7869455,-26.6311119],[-54.7814792,-26.5100955],[-54.7153097,-26.4593725],[-54.651801,-26.319976],[-54.6794485,-26.2723236],[-54.6187442,-26.2089301],[-54.6698993,-26.1648742],[-54.6468966,-26.074862],[-54.6767508,-26.016751],[-54.6084445,-25.9551497],[-54.5916217,-25.8180098],[-54.6577785,-25.6876501],[-54.5810797,-25.6582452],[-54.5543835,-25.5875373],[-54.4275479,-25.6686635],[-54.3752519,-25.5937935],[-54.28,-25.556],[-54.161,-25.541],[-54.01,-25.567],[-53.8621692,-25.6590193],[-53.8645062,-25.7453183],[-53.82229,-25.7928421],[-53.8425053,-25.9323115],[-53.7718992,-26.0315167],[-53.7420405,-26.1155723],[-53.6435195,-26.2164134],[-53.6457558,-26.2864285],[-53.7073553,-26.3954517],[-53.6890468,-26.4435346],[-53.7309445,-26.5097003],[-53.7417631,-26.6477746],[-53.682144,-26.91654],[-53.8435461,-27.1645294],[-53.9590042,-27.1580427],[-54.0800592,-27.2982793],[-54.1921491,-27.3073694],[-54.2173631,-27.3860346],[-54.308489,-27.4230064],[-54.3964597,-27.412685],[-54.4493292,-27.4761518],[-54.5198372,-27.5023545],[-54.5715475,-27.4544177],[-54.6140125,-27.5315295],[-54.6888904,-27.5738839],[-54.786,-27.576],[-54.9068966,-27.6465355],[-54.9345696,-27.7692285],[-55.0431347,-27.7748863],[-55.032481,-27.8249394],[-55.1972338,-27.8571383],[-55.2691913,-27.9311757],[-55.3101432,-27.921611],[-55.3849837,-27.9852432],[-55.381608,-28.0396373],[-55.4834247,-28.0776128],[-55.5519568,-28.1606657],[-55.6202071,-28.1375453],[-55.6977162,-28.0896171],[-55.8021435,-27.9742162],[-55.8359763,-27.7835859],[-55.9817652,-27.5388864],[-56.0547452,-27.4509015],[-56.0242666,-27.3242585]]]},"properties":{"srid":"4326","id":"153553","name":"Misiones","localname":"Misiones","official_name":"","boundary":"administrative","admin_level":"4","note":"","wikidata":"Q44798","wikipedia":"es:Provincia de Misiones","timestamp":"2019-12-11 22:37:02","rpath":"153553,286393,0","alltags":{"name:el":"Μισιόνες","name:he":"מיסיונס","name:ja":"ミシオネス州","alt_name":"Provincia de Misiones","timezone":"America/Argentina/Cordoba","wikidata":"Q44798","ISO3166-2":"AR-N","wikipedia":"es:Provincia de Misiones","short_name":"Mnes.","is_in:country":"Argentina"}}},
{"type":"Feature","geometry":{"type":"Polygon","coordinates":[[[-70.398615,-36.0529199],[-70.394581,-36.1951399],[-70.3438604,-36.3333769],[-70.2202374,-36.3321107],[-70.2044338,-36.4394791],[-70.0454005,-36.6569152],[-69.9467915,-36.7227831],[-69.9210799,-36.795239],[-69.7583449,-36.8764366],[-69.7784293,-36.915918],[-69.7540728,-37.0706232],[-69.5285372,-37.1744132],[-69.4017652,-37.1724678],[-69.2727571,-37.1446547],[-69.0646258,-37.2234015],[-69.0451051,-37.3344716],[-68.9766956,-37.378615],[-68.8675645,-37.3941419],[-68.7671108,-37.3665508],[-68.6863812,-37.4416668],[-68.4960759,-37.4590703],[-68.4382501,-37.5438075],[-68.2549427,-37.5711073],[-68.2500111,-37.787366],[-68.247194,-38.6909883],[-68.1343806,-38.7492489],[-68.0655097,-38.9089122],[-68.0779214,-38.99525],[-68.1784995,-38.9674111],[-68.3548721,-39.0020562],[-68.5060294,-39.071855],[-68.5595406,-39.0757709],[-68.6644565,-39.1803573],[-68.6540308,-39.2054456],[-68.8101337,-39.2860387],[-68.8550668,-39.3826343],[-69.0856793,-39.5326287],[-69.3081048,-39.6378516],[-69.346985,-39.707577],[-69.5086276,-39.8134396],[-69.5709824,-39.8094195],[-69.9349638,-39.9433164],[-70.0048868,-40.0377331],[-69.9506652,-40.1803137],[-70.0299082,-40.2145262],[-70.0778274,-40.3966405],[-70.1845578,-40.4293146],[-70.1786108,-40.4936666],[-70.3028228,-40.5009923],[-70.4208288,-40.5337074],[-70.4765839,-40.5116934],[-70.62355,-40.5501618],[-70.6503449,-40.5908689],[-70.8584864,-40.5959029],[-70.9793923,-40.6501003],[-71.027674,-40.7244314],[-71.1191465,-40.7579569],[-71.1009889,-40.83474],[-71.0317833,-40.9329],[-71.141822,-41.0562017],[-71.3062478,-41.1001809],[-71.4569058,-41.0416113],[-71.8642325,-41.0201164],[-71.8549628,-40.9443066],[-71.9275224,-40.8335054],[-71.9495482,-40.7190868],[-71.8661086,-40.6582453],[-71.8414015,-40.4520986],[-71.803636,-40.4059719],[-71.7085356,-40.4227014],[-71.6716504,-40.3110838],[-71.7361731,-40.3056388],[-71.8281836,-40.2077784],[-71.7996878,-40.135898],[-71.6999853,-40.1170301],[-71.6893825,-40.036312],[-71.5926642,-39.9012343],[-71.6908545,-39.8427389],[-71.6802657,-39.7691539],[-71.698671,-39.5877651],[-71.6101736,-39.6279613],[-71.5181237,-39.6256978],[-71.4611194,-39.5828611],[-71.5343806,-39.5304079],[-71.4729448,-39.4932666],[-71.4466307,-39.396385],[-71.4016371,-39.3518155],[-71.3886668,-39.2653429],[-71.4073699,-39.0957795],[-71.4410265,-38.9775124],[-71.4254235,-38.9216416],[-71.1075,-38.771944],[-70.9252447,-38.7629764],[-70.9041304,-38.6668061],[-70.8291144,-38.5993563],[-70.840444,-38.5413767],[-70.9762282,-38.4422198],[-71.0196108,-38.2178263],[-70.9862865,-38.1043135],[-71.1146621,-37.9530273],[-71.1080641,-37.892661],[-71.2119126,-37.6890097],[-71.1942333,-37.6303092],[-71.1264252,-37.5822965],[-71.1193453,-37.4864952],[-71.1497712,-37.4026464],[-71.1991678,-37.3796281],[-71.2155461,-37.2726057],[-71.1140192,-37.2051839],[-71.0923684,-37.1144387],[-71.1707211,-36.9963234],[-71.1445856,-36.9291483],[-71.1112619,-36.7284371],[-71.0128892,-36.6973629],[-71.0553002,-36.5663055],[-71.0384399,-36.4775247],[-70.9562087,-36.5047207],[-70.8940566,-36.4712785],[-70.8900911,-36.403373],[-70.7128511,-36.4268664],[-70.7050052,-36.2722907],[-70.6396033,-36.2429494],[-70.5345454,-36.1415358],[-70.4211295,-36.1561506],[-70.398615,-36.0529199]]]},"properties":{"srid":"4326","id":"1606727","name":"Neuquén Province","localname":"Neuquén","official_name":"","boundary":"administrative","admin_level":"4","note":"","wikidata":"Q44800","wikipedia":"es:Provincia del Neuquén","timestamp":"2019-12-10 15:09:02","rpath":"1606727,286393,0","alltags":{"name:ar":"نيوكوين","name:ay":"Neuquén jisk'a suyu","name:be":"Неўкен","name:bg":"Неукен","name:br":"Neuquén","name:ca":"Província del Neuquén","name:cs":"Neuquén","name:cy":"Talaith Neuquén","name:da":"Neuquén","name:el":"Νεουκέν","name:en":"Neuquén Province","name:eo":"Provinco Neŭkeno","name:eu":"Neuquéngo probintzia","name:fa":"استان نئوکن","name:fi":"Neuquénin maakunta","name:fr":"Province de Neuquén","name:gl":"Provincia de Neuquén","name:gn":"Tetãvore Neuquén","name:he":"נאוקן","name:hi":"न्यूक्वीन प्रान्त","name:hr":"Neuquén","name:hu":"Neuquén tartomány","name:hy":"Նեուկեն","name:id":"Provinsi Neuquén","name:it":"Provincia di Neuquén","name:ja":"ネウケン州","name:ka":"ნეუკენის პროვინცია","name:ko":"네우켄주","name:la":"Neuquén","name:lt":"Neukeno provincija","name:lv":"Neukenas province","name:mr":"नेउकेन","name:ms":"Wilayah Neuquén","name:nl":"Neuquén","name:no":"Neuquén","name:oc":"Província deu Neuquén","name:os":"Неукен","name:pl":"Neuquén","name:pt":"Neuquén","name:qu":"Neuquén wamani","name:ro":"Provincia Neuquén","name:ru":"Неукен","name:sk":"Neuquén","name:sr":"Неукен","name:sv":"Neuquén","name:sw":"Mkoa wa Neuquén","name:tg":"Неукен","name:th":"รัฐเนวเกน","name:tl":"Lalawigan ng Neuquén","name:tr":"Neuquén","name:tt":"Неукен","name:uk":"Неукен","name:ur":"صوبہ نیوکوین","name:vi":"Neuquén","name:vo":"Neuquén","name:zh":"內烏肯省","timezone":"America/Argentina/Salta","wikidata":"Q44800","ISO3166-2":"AR-Q","wikipedia":"es:Provincia del Neuquén","short_name":"NQN","is_in:country":"Argentina"}}},
{"type":"Feature","geometry":{"type":"Polygon","coordinates":[[[-71.8642325,-41.0201164],[-71.4569058,-41.0416113],[-71.3062478,-41.1001809],[-71.141822,-41.0562017],[-71.0317833,-40.9329],[-71.1009889,-40.83474],[-71.1191465,-40.7579569],[-71.027674,-40.7244314],[-70.9793923,-40.6501003],[-70.8584864,-40.5959029],[-70.6503449,-40.5908689],[-70.62355,-40.5501618],[-70.4765839,-40.5116934],[-70.4208288,-40.5337074],[-70.3028228,-40.5009923],[-70.1786108,-40.4936666],[-70.1845578,-40.4293146],[-70.0778274,-40.3966405],[-70.0299082,-40.2145262],[-69.9506652,-40.1803137],[-70.0048868,-40.0377331],[-69.9349638,-39.9433164],[-69.5709824,-39.8094195],[-69.5086276,-39.8134396],[-69.346985,-39.707577],[-69.3081048,-39.6378516],[-69.0856793,-39.5326287],[-68.8550668,-39.3826343],[-68.8101337,-39.2860387],[-68.6540308,-39.2054456],[-68.6644565,-39.1803573],[-68.5595406,-39.0757709],[-68.5060294,-39.071855],[-68.3548721,-39.0020562],[-68.1784995,-38.9674111],[-68.0779214,-38.99525],[-68.0655097,-38.9089122],[-68.1343806,-38.7492489],[-68.247194,-38.6909883],[-68.2500111,-37.787366],[-68.2549427,-37.5711073],[-67.9467702,-37.6032502],[-67.8349278,-37.6243735],[-67.7705161,-37.6705693],[-67.7219445,-37.797249],[-67.7298888,-37.850775],[-67.8474168,-37.9178891],[-67.9016586,-37.9811567],[-67.8264039,-38.0636569],[-67.7304425,-38.076052],[-67.6557009,-38.2013147],[-67.5957064,-38.2334087],[-67.4370182,-38.2538537],[-67.1836337,-38.2234402],[-67.1387073,-38.3607005],[-66.9947641,-38.4462323],[-66.9050858,-38.4432164],[-66.6093834,-38.5578657],[-66.5779157,-38.6229297],[-66.6058581,-38.6797517],[-66.5346897,-38.7207825],[-66.3468865,-38.7564041],[-66.1325194,-38.7394558],[-65.6518512,-38.8273608],[-65.5680931,-38.7850452],[-65.3892534,-38.8312786],[-65.3752499,-38.8560417],[-65.1597753,-38.8034458],[-64.9573174,-38.823197],[-64.8104094,-38.8164119],[-64.3669191,-38.8826299],[-64.0834511,-38.9899172],[-64.0100351,-39.0026603],[-63.9014488,-39.105383],[-63.7575656,-39.1286832],[-63.7330582,-39.1858428],[-63.5368234,-39.297909],[-63.3832641,-39.32873],[-63.3822022,-39.8743934],[-63.3793513,-40.7101894],[-63.1843101,-40.7221828],[-62.960106,-40.8167661],[-62.8058525,-40.9804263],[-62.790071,-41.0234191],[-62.880249,-41.0779358],[-63.1221223,-41.1570628],[-63.7883737,-41.1589793],[-63.8700187,-41.1381155],[-63.9426398,-41.0795129],[-64.2039719,-41.0107262],[-64.30967,-40.9560699],[-64.5425401,-40.8641101],[-64.7428179,-40.8186567],[-64.7872867,-40.7340949],[-64.9405081,-40.7099819],[-65.1151729,-40.8349828],[-65.1567471,-40.9284981],[-65.1675832,-41.0643675],[-65.1355899,-41.2285401],[-65.0450799,-41.4631984],[-65.0003204,-41.4890392],[-65.0248974,-41.7221704],[-64.9995589,-41.7716958],[-65.0490977,-41.8404344],[-65.0696544,-42.0003075],[-66.132587,-42.0003899],[-67.1905961,-42.0001763],[-68.0855275,-41.9998297],[-68.5816775,-41.999765],[-69.4175087,-41.9991336],[-70.3512184,-41.9997127],[-71.1274836,-41.9996079],[-71.7737542,-41.9998326],[-71.7841798,-41.7349618],[-71.8858775,-41.6051558],[-71.8371427,-41.566246],[-71.8347287,-41.4334889],[-71.9109008,-41.3577981],[-71.8757236,-41.2967194],[-71.8196005,-41.0603832],[-71.8642325,-41.0201164]]]},"properties":{"srid":"4326","id":"153547","name":"Río Negro Province","localname":"Río Negro","official_name":"","boundary":"administrative","admin_level":"4","note":"","wikidata":"Q44802","wikipedia":"es:Provincia de Río Negro","timestamp":"2019-11-27 22:59:03","rpath":"153547,286393,0","alltags":{"name:ar":"ريو نيغرو","name:ay":"Río Negro jisk'a suyu","name:be":"Рыа-Негра","name:bg":"Рио Негро","name:br":"Río Negro","name:ca":"Província de Río Negro","name:cs":"Río Negro","name:cy":"Río Negro","name:da":"Río Negro","name:el":"Ρίο Νέγκρο","name:en":"Río Negro Province","name:eo":"Provinco Rio Negro","name:eu":"Río Negroko probintzia","name:fa":"استان ریو نگرو، آرژانتین","name:fi":"Río Negron maakunta","name:fr":"Province de Río Negro","name:gl":"Provincia de Río Negro","name:gn":"Tetãvore Río Negro","name:he":"ריו נגרו","name:hi":"रियो नेग्रो प्रान्त, अर्जेन्टीना","name:hu":"Río Negro tartomány","name:id":"Provinsi Río Negro","name:it":"Provincia di Río Negro","name:ja":"リオネグロ州","name:ka":"რიო-ნეგროს პროვინცია","name:ko":"리오네그로주","name:lt":"Rio Negro provincija","name:lv":"Rionegro province","name:mk":"Рио Негро","name:mr":"रियो नेग्रो","name:ms":"Wilayah Río Negro","name:nl":"Río Negro","name:no":"Río Negro","name:oc":"Província de Río Negro","name:os":"Рио-Негро","name:pl":"Río Negro","name:pt":"Río Negro","name:qu":"Río Negro wamani","name:ro":"Provincia Río Negro","name:ru":"Рио-Негро","name:sk":"Río Negro","name:sr":"Рио Негро","name:sv":"Río Negro","name:sw":"Mkoa wa Río Negro","name:tg":"Рио-Негро","name:th":"รัฐริโอเนโกร","name:tl":"Lalawigan ng Río Negro","name:tr":"Río Negro","name:tt":"Рио-Негро","name:uk":"Ріо-Неґро","name:ur":"صوبہ ریو نیگرو","name:vi":"Río Negro","name:vo":"Río Negro","name:zh":"内格罗河省","wikidata":"Q44802","ISO3166-2":"AR-R","wikipedia":"es:Provincia de Río Negro","short_name":"RN","is_in:country":"Argentina"}}},
{"type":"Feature","geometry":{"type":"Polygon","coordinates":[[[-67.212916,-23.6945116],[-67.0032626,-23.8799071],[-66.9496922,-23.9671092],[-66.8817779,-23.9955318],[-66.830268,-24.0646009],[-66.7459559,-24.0895786],[-66.6368321,-24.1768473],[-66.5436777,-24.2076475],[-66.4206276,-24.1617903],[-66.3777306,-24.1166442],[-66.3517296,-24.0203971],[-66.3672709,-23.958964],[-66.3570689,-23.8230554],[-66.3789484,-23.7489713],[-66.316807,-23.5736908],[-66.1771461,-23.4144018],[-65.9872882,-23.5097627],[-66.0220814,-23.8617422],[-65.9910107,-23.9817042],[-65.8695173,-24.0028567],[-65.7540214,-24.0559772],[-65.7254935,-24.1868865],[-65.6730975,-24.2470889],[-65.6536277,-24.3787352],[-65.5433303,-24.4486465],[-65.4868537,-24.4274234],[-65.3577904,-24.462419],[-65.3465079,-24.497258],[-65.1825642,-24.4647092],[-65.0792313,-24.5621807],[-64.9285561,-24.5991373],[-64.8428613,-24.466996],[-64.7258921,-24.5296023],[-64.6829982,-24.59086],[-64.5946109,-24.6129597],[-64.5416393,-24.5169895],[-64.4546104,-24.4640953],[-64.4159832,-24.3976567],[-64.3181405,-24.4272118],[-64.1818457,-24.2645794],[-64.1506698,-24.1363884],[-64.160697,-24.0721629],[-64.156251,-23.5188443],[-64.3525264,-23.5174972],[-64.3910919,-23.6017927],[-64.4419396,-23.6373624],[-64.5367147,-23.5227588],[-64.6837446,-23.4553779],[-64.7831358,-23.4933198],[-64.8740476,-23.4729435],[-64.8994792,-23.334341],[-64.9573517,-23.2819399],[-65.021934,-23.2788691],[-65.0771413,-23.2320094],[-65.0462244,-23.1532924],[-65.0682235,-23.0413368],[-65.273441,-22.8950652],[-65.2743073,-22.7898756],[-65.3019876,-22.7139174],[-65.2713182,-22.6495674],[-65.3506485,-22.6021836],[-65.347714,-22.5255057],[-65.2819161,-22.4133137],[-65.187155,-22.0847882],[-64.9932167,-22.082389],[-64.7224809,-22.1962267],[-64.6380889,-22.1947981],[-64.5357933,-22.2913665],[-64.5669421,-22.371931],[-64.4910774,-22.4370101],[-64.4837773,-22.4795202],[-64.4085738,-22.5591853],[-64.436604,-22.634667],[-64.3516863,-22.7316799],[-64.3262044,-22.8204064],[-64.2599763,-22.7450158],[-64.2684044,-22.6550513],[-64.2433212,-22.5603934],[-64.1187438,-22.4064798],[-64.0925424,-22.3012491],[-64.0360436,-22.2432981],[-63.9864203,-22.0936455],[-63.9313947,-22],[-63.2996822,-21.9999572],[-62.8061712,-22],[-62.8135604,-22.1078622],[-62.7913012,-22.1619317],[-62.6888638,-22.2097465],[-62.6299869,-22.3029612],[-62.5709075,-22.3272312],[-62.4507445,-22.4197299],[-62.3419758,-22.4774922],[-62.3421761,-23.1553747],[-62.3424597,-24.1089858],[-62.3425498,-24.3920286],[-62.6358599,-24.7361458],[-63.0741094,-25.2436964],[-63.4222977,-25.6490492],[-63.4760921,-25.7098297],[-63.6604221,-25.6853336],[-64.0077853,-25.6733052],[-64.0254214,-25.7533934],[-64.1960335,-25.7273773],[-64.2683029,-25.7007136],[-64.4036579,-26.0311691],[-64.4254965,-26.1158838],[-64.4952789,-26.2192648],[-64.6617,-26.2431],[-64.7904,-26.2237],[-64.9509,-26.3068],[-65.0398939,-26.2831193],[-65.0452,-26.2301],[-65.271999,-26.172557],[-65.2917012,-26.1022508],[-65.3611,-26.0583],[-65.4244,-26.109],[-65.5488,-26.0876],[-65.6017,-26.1207],[-65.6885,-26.1173],[-65.7242,-26.2789],[-65.7194,-26.3528],[-66,-26.264],[-66.0998,-26.2205],[-66.1423303,-26.1591358],[-66.2306071,-26.1492167],[-66.2924266,-26.2294323],[-66.3821412,-26.4167008],[-66.4610851,-26.3641061],[-66.5399409,-26.3522094],[-66.5733505,-26.1845176],[-66.6476584,-26.1097432],[-66.7455268,-26.0632789],[-66.8437815,-25.9717418],[-66.8509514,-25.7809026],[-66.812861,-25.7001258],[-66.6487313,-25.7119195],[-66.6308141,-25.6590318],[-66.5366042,-25.537698],[-66.520114,-25.4490487],[-66.5593434,-25.2986428],[-66.8794989,-25.2412435],[-67.864494,-25.237685],[-68.5072231,-25.1685671],[-68.3432973,-25.1106269],[-68.4069729,-25.028538],[-68.4317994,-24.9057201],[-68.4863985,-24.8952636],[-68.5678906,-24.7973933],[-68.5442805,-24.7245458],[-68.4312469,-24.5776851],[-68.3872399,-24.4841876],[-68.309201,-24.4917936],[-68.2455227,-24.396151],[-67.3223085,-24.0344],[-67.212916,-23.6945116]]]},"properties":{"srid":"4326","id":"2405230","name":"Salta","localname":"Salta","official_name":"","boundary":"administrative","admin_level":"4","note":"","wikidata":"Q44803","wikipedia":"es:Provincia de Salta","timestamp":"2019-11-26 10:31:02","rpath":"2405230,286393,0","alltags":{"name:el":"Σάλτα","name:he":"סלטה","name:ja":"サルタ州","name:ru":"Сальта","name:uk":"Сальта","timezone":"America/Argentina/Salta","wikidata":"Q44803","ISO3166-2":"AR-A","wikipedia":"es:Provincia de Salta","short_name":"SA","is_in:country":"Argentina"}}},
{"type":"Feature","geometry":{"type":"Polygon","coordinates":[[[-69.633645,-28.3889219],[-69.6060949,-28.4191953],[-69.4701867,-28.4149695],[-69.4301178,-28.4510378],[-69.3249655,-28.4237531],[-69.1835258,-28.5869292],[-69.2140935,-28.6028498],[-69.1997299,-28.7072369],[-69.1603354,-28.7655218],[-68.9296193,-28.8402082],[-68.9598,-28.9542],[-68.9176615,-29.0694308],[-69.0002,-29.1844],[-68.9727045,-29.4436928],[-69.0305902,-29.5235537],[-69.01326,-29.6481911],[-68.9343687,-29.6253527],[-68.7930847,-29.6222665],[-68.6861237,-29.6411359],[-68.4816592,-29.6502055],[-68.3399105,-29.7049023],[-68.1989701,-29.7810774],[-68.1804862,-29.8561932],[-68.0524146,-29.9013282],[-67.9912698,-29.9858051],[-67.8542144,-30.1001972],[-67.6860392,-30.2150916],[-67.5896606,-30.298484],[-67.5807843,-30.4062239],[-67.4720021,-30.556219],[-67.272159,-30.5862011],[-67.1385054,-30.7996306],[-67.0834448,-30.916584],[-67.1165982,-31.0166348],[-67.0666284,-31.0833422],[-67.0999903,-31.3833306],[-67.0798139,-31.4609294],[-67.0208298,-31.5189461],[-67.0340758,-31.5897276],[-66.9499682,-31.6333162],[-66.8666436,-31.6333585],[-66.8151598,-31.7868389],[-66.716642,-31.8426599],[-66.6612706,-31.923595],[-66.7897099,-31.9172599],[-67.006,-31.8553],[-67.137,-31.8338],[-67.2389011,-31.8808074],[-67.4645,-31.8593],[-67.44,-32.0047],[-67.475,-32.1067],[-67.4301,-32.1994],[-67.2782,-32.2923],[-67.3299053,-32.3587447],[-67.4524478,-32.3187424],[-67.5253769,-32.2279091],[-67.7233741,-32.2422598],[-67.8359738,-32.2224407],[-67.9822401,-32.0923644],[-68.0596057,-32.0738474],[-68.151981,-32.1193286],[-68.2478299,-32.091599],[-68.3010745,-32.137918],[-68.4630444,-32.1378415],[-68.4629,-32.2377],[-68.6654739,-32.3367059],[-68.916882,-32.3367765],[-68.916687,-32.1314806],[-69.0167523,-32.1132666],[-69.1284228,-31.9994441],[-69.2444984,-32.0161073],[-69.3142091,-32.0911287],[-69.4556492,-32.0746346],[-69.5354002,-32.1416355],[-69.5968412,-32.1414471],[-69.618616,-32.2371902],[-69.7252096,-32.3166313],[-69.6976487,-32.4097937],[-69.7057136,-32.4974527],[-69.8247612,-32.564135],[-70.0030432,-32.5291273],[-70.0633272,-32.626124],[-70.125877,-32.5763921],[-70.1489925,-32.4658474],[-70.2363199,-32.4290524],[-70.2222598,-32.3249102],[-70.3191841,-32.2733543],[-70.3050327,-32.1426966],[-70.3219628,-32.050289],[-70.208323,-31.9781121],[-70.2722454,-31.8906306],[-70.3919149,-31.87948],[-70.4550326,-31.8485902],[-70.4675424,-31.700732],[-70.5132473,-31.6896589],[-70.5667949,-31.5830962],[-70.5696166,-31.4734926],[-70.5301452,-31.3756143],[-70.5450368,-31.3063943],[-70.4984629,-31.1251869],[-70.4322338,-31.1019202],[-70.408051,-31.1663329],[-70.3187817,-31.0431999],[-70.3214532,-30.9243944],[-70.2781785,-30.8099011],[-70.2472204,-30.6349857],[-70.1951668,-30.4916819],[-70.0702858,-30.3908864],[-69.9551761,-30.3857499],[-69.9034309,-30.3433523],[-69.8856897,-30.2187294],[-69.835333,-30.2190507],[-69.8092625,-30.1455362],[-69.9609931,-30.0687168],[-69.8776502,-29.8615257],[-69.9134789,-29.8067911],[-69.8796249,-29.7336572],[-69.9418245,-29.6461111],[-69.9314819,-29.5843646],[-69.9667686,-29.4146286],[-70.0203769,-29.3302574],[-69.9461803,-29.2628059],[-69.9332607,-29.1887545],[-69.8830734,-29.1440374],[-69.7871134,-29.1300549],[-69.7667009,-28.9241088],[-69.6928756,-28.7711704],[-69.7266828,-28.6705835],[-69.6646573,-28.5814724],[-69.6646916,-28.4821278],[-69.633645,-28.3889219]]]},"properties":{"srid":"4326","id":"153539","name":"San Juan","localname":"San Juan","official_name":"","boundary":"administrative","admin_level":"4","note":"","wikidata":"Q44805","wikipedia":"es:Provincia de San Juan (Argentina)","timestamp":"2019-12-03 22:59:01","rpath":"153539,286393,0","alltags":{"name:ar":"سان خوان","name:el":"Σαν Χουάν","name:he":"סן חואן","name:ja":"サンフアン州","name:ru":"Сан-Хуан","timezone":"America/Argentina/San_Juan","wikidata":"Q44805","ISO3166-2":"AR-J","wikipedia":"es:Provincia de San Juan (Argentina)","short_name":"SJ","is_in:country":"Argentina"}}},
{"type":"Feature","geometry":{"type":"Polygon","coordinates":[[[-66.6612706,-31.923595],[-66.3550085,-31.9904801],[-66.3327097,-31.9380801],[-66.1584343,-31.9636445],[-65.9792486,-31.8891634],[-65.9153804,-31.909848],[-65.7699108,-31.8890843],[-65.6276184,-31.898895],[-65.3126477,-32.0420679],[-65.2451068,-32.0897361],[-65.2106386,-32.2351835],[-65.2089864,-32.3242169],[-65.0869862,-32.3135286],[-64.9349928,-32.3331238],[-64.9468589,-32.5166919],[-64.900333,-32.5749322],[-64.9689389,-32.7996124],[-64.9988263,-33.0029924],[-65.0545979,-33.1149807],[-65.142633,-33.1944581],[-65.1116818,-33.8747697],[-65.1087484,-34.7435363],[-65.1050003,-35.0153678],[-65.1078587,-35.9990851],[-65.8539615,-36.0000014],[-66.6377828,-36.0006312],[-66.6219669,-35.8485665],[-66.5487275,-35.6434772],[-66.5699986,-35.5826204],[-66.5229054,-35.5071275],[-66.5290999,-35.4463887],[-66.4841469,-35.2406455],[-66.4778557,-35.1409015],[-66.5210738,-35.0642351],[-66.5633104,-34.8286857],[-66.6434937,-34.7640678],[-66.7652075,-34.5509095],[-66.7543086,-34.4429178],[-66.7894107,-34.4204255],[-66.8035231,-34.3074703],[-66.785475,-34.2337153],[-66.7291975,-34.2084019],[-66.6882189,-33.9378644],[-66.8738653,-33.8324035],[-66.8917769,-33.766402],[-66.9576682,-33.7227865],[-67.0028234,-33.6302305],[-67.1358201,-33.4649625],[-67.182559,-33.1994694],[-67.1845155,-33.015379],[-67.2319997,-32.8644833],[-67.1777005,-32.8197327],[-67.1879276,-32.6972646],[-67.2256534,-32.6810473],[-67.2939288,-32.4963439],[-67.3299053,-32.3587447],[-67.2782,-32.2923],[-67.4301,-32.1994],[-67.475,-32.1067],[-67.44,-32.0047],[-67.4645,-31.8593],[-67.2389011,-31.8808074],[-67.137,-31.8338],[-67.006,-31.8553],[-66.7897099,-31.9172599],[-66.6612706,-31.923595]]]},"properties":{"srid":"4326","id":"153538","name":"San Luis","localname":"San Luis","official_name":"Provincia de San Luis","boundary":"administrative","admin_level":"4","note":"","wikidata":"Q44818","wikipedia":"es:Provincia de San Luis","timestamp":"2019-11-28 22:59:02","rpath":"153538,286393,0","alltags":{"name:el":"Σαν Λουίς","name:he":"סן לואיס","name:ja":"サンルイス州","name:ru":"Сан-Луис","name:uk":"Сан-Луїс","timezone":"America/Argentina/San_Luis","wikidata":"Q44818","ISO3166-2":"AR-D","wikipedia":"es:Provincia de San Luis","is_in:country":"Argentina","official_name":"Provincia de San Luis"}}},
{"type":"Feature","geometry":{"type":"Polygon","coordinates":[[[-71.6477316,-46.0000237],[-71.0287834,-45.9999805],[-70.1622031,-45.9999201],[-68.9166147,-46.000003],[-68.269401,-46.0000038],[-67.5955311,-46.0000136],[-67.6260444,-46.1708107],[-67.576815,-46.3302219],[-67.4403476,-46.548406],[-67.3533936,-46.6197384],[-67.13636,-46.7048],[-67.02718,-46.81544],[-66.95592,-46.85227],[-66.77984,-47.00621],[-66.6260934,-47.046148],[-66.5082501,-47.04101],[-66.1858249,-47.0874522],[-65.9769501,-47.07149],[-65.8543897,-47.1086911],[-65.7529378,-47.1978632],[-65.7179189,-47.3321334],[-65.7399881,-47.5118094],[-65.8570943,-47.7512137],[-65.8588207,-47.8725254],[-65.7766718,-47.9076756],[-65.8083201,-47.9611131],[-65.9108237,-47.9335968],[-65.9755182,-48.1002667],[-66.1247081,-48.1262619],[-66.3398,-48.2806801],[-66.34825,-48.3437],[-66.4497006,-48.3528126],[-66.4748099,-48.3980801],[-66.6612196,-48.4355361],[-66.828804,-48.521522],[-66.8964601,-48.6019917],[-67.0096,-48.62142],[-67.1177,-48.6786199],[-67.1925974,-48.8111806],[-67.4676154,-48.9447129],[-67.57216,-49.03717],[-67.63484,-49.1335986],[-67.6031041,-49.2943995],[-67.66158,-49.39486],[-67.72026,-49.6380499],[-67.7296401,-49.77786],[-67.7928199,-49.88826],[-67.8889,-49.9886801],[-68.0442999,-50.07158],[-68.1958419,-50.1166799],[-68.3251022,-50.123187],[-68.40611,-50.1863899],[-68.7732833,-50.2881943],[-68.8798874,-50.3350759],[-68.9849947,-50.4349938],[-69.0737701,-50.55762],[-69.1411301,-50.7459399],[-69.13206,-50.8984401],[-69.2171999,-50.94855],[-69.1554999,-50.99837],[-69.13745,-51.07707],[-68.9947844,-51.4551602],[-68.9531511,-51.5278797],[-68.9606172,-51.6253781],[-68.7148999,-51.9737301],[-68.3523846,-52.32277],[-68.5734933,-52.3251432],[-68.7096966,-52.2854896],[-68.8379801,-52.2777654],[-68.986873,-52.2036118],[-69.1901446,-52.1504426],[-69.4863161,-52.1516536],[-69.9955041,-52.0007436],[-71.064383,-51.9998449],[-71.9225861,-51.9999142],[-72.0266901,-51.9557127],[-71.9487705,-51.873565],[-72.1209301,-51.7446869],[-72.2989038,-51.6974808],[-72.3382719,-51.5840883],[-72.4412406,-51.5841966],[-72.3244143,-51.4758118],[-72.3080045,-51.3775165],[-72.3577166,-51.3181009],[-72.2586519,-51.2441848],[-72.4014473,-51.135302],[-72.3741692,-51.0232128],[-72.2655988,-51.0350439],[-72.2605118,-50.8358441],[-72.3490477,-50.7547069],[-72.2862142,-50.6598676],[-72.495468,-50.6018312],[-72.5833535,-50.6585398],[-72.7324212,-50.6155092],[-72.8928838,-50.6702144],[-72.9567871,-50.7410278],[-73.0941836,-50.7730897],[-73.1962931,-50.7413234],[-73.1529594,-50.6582352],[-73.2873166,-50.5898782],[-73.3644462,-50.5180587],[-73.3575,-50.4288889],[-73.3975,-50.3705556],[-73.3613889,-50.3013889],[-73.4522617,-50.2413934],[-73.521806,-50.1536893],[-73.4360504,-50.0110728],[-73.5584933,-49.9471985],[-73.4384952,-49.7578302],[-73.5042301,-49.7094293],[-73.460712,-49.6245294],[-73.5357242,-49.5640435],[-73.5445133,-49.5047174],[-73.4273258,-49.3936334],[-73.4320255,-49.3141046],[-73.4964176,-49.2683282],[-73.4729864,-49.2046406],[-73.1491389,-49.2838889],[-73.1395141,-49.1781745],[-73.0007823,-49.0594761],[-72.9230079,-48.9344612],[-72.7947423,-48.964327],[-72.5340128,-48.8003835],[-72.5419843,-48.6311856],[-72.5857633,-48.487298],[-72.439805,-48.5142333],[-72.4055931,-48.416961],[-72.277107,-48.3633279],[-72.2344338,-48.3157578],[-72.3156162,-48.2354081],[-72.2986269,-48.160122],[-72.361121,-48.0743091],[-72.4142445,-48.0789686],[-72.4270621,-47.9662081],[-72.5228394,-47.9019177],[-72.4668881,-47.8136059],[-72.4205186,-47.661172],[-72.3454609,-47.6322676],[-72.2659153,-47.4152641],[-72.1982646,-47.4161933],[-72.1269071,-47.3279958],[-72.0460013,-47.3404564],[-71.9737034,-47.2095949],[-71.850571,-47.1627562],[-71.9493643,-47.0867667],[-71.8797663,-47.0111529],[-71.9525796,-46.9590538],[-71.9485098,-46.8098257],[-71.8391677,-46.7988504],[-71.6485137,-46.6889014],[-71.6692367,-46.5278475],[-71.7567904,-46.3462231],[-71.7239347,-46.2846854],[-71.7993879,-46.1914062],[-71.8889931,-46.1274351],[-71.7620689,-46.1117641],[-71.6477316,-46.0000237]]]},"properties":{"srid":"4326","id":"153549","name":"Santa Cruz Province, Argentina","localname":"Santa Cruz","official_name":"","boundary":"administrative","admin_level":"4","note":"","wikidata":"Q44821","wikipedia":"es:Provincia de Santa Cruz","timestamp":"2019-11-22 22:59:02","rpath":"153549,286393,0","alltags":{"name:ar":"محافظة سانتا كروز","name:ay":"Santa Crus jisk'a suyu","name:be":"Санта-Крус","name:bg":"Санта Крус","name:br":"Proviñs Santa Cruz","name:ca":"Província de Santa Cruz","name:cs":"Santa Cruz","name:cy":"Talaith Santa Cruz","name:da":"Santa Cruz","name:el":"Σάντα Κρουζ","name:en":"Santa Cruz Province, Argentina","name:eo":"Provinco Santa Cruz","name:et":"Santa Cruzi provints","name:eu":"Santa Cruzko probintzia","name:fa":"استان سانتا کروس، آرژانتین","name:fi":"Santa Cruzin maakunta","name:fr":"Province de Santa Cruz","name:gl":"Provincia de Santa Cruz","name:gn":"Tetãvore Santa Cruz","name:he":"סנטה קרוס","name:hi":"सैन्ता क्रुज प्रान्त, अर्जेन्टीना","name:hu":"Santa Cruz tartomány","name:hy":"Սանտա Կրուս","name:id":"Provinsi Santa Cruz","name:it":"Provincia di Santa Cruz","name:ja":"サンタクルス州","name:ka":"სანტა-კრუსის პროვინცია","name:ko":"산타크루스주","name:lb":"Provënz Santa Cruz","name:lt":"Santa Kruso provincija","name:lv":"Santakrusas province","name:mk":"Санта Круз","name:mr":"सांता क्रुझ","name:ms":"Wilayah Santa Cruz","name:nl":"Santa Cruz","name:no":"Santa Cruz","name:oc":"Província de Santa Cruz","name:os":"Сантæ-Крус","name:pl":"Santa Cruz","name:pt":"Santa Cruz","name:qu":"Santa Krus wamani","name:ro":"Provincia Santa Cruz","name:ru":"Санта-Крус","name:sk":"Santa Cruz","name:sl":"Santa Cruz","name:sr":"Санта Круз","name:sv":"Santa Cruz","name:sw":"Mkoa wa Santa Cruz","name:tg":"Санта-Крус","name:th":"รัฐซานตากรุซ","name:tl":"Lalawigan ng Santa Cruz","name:tr":"Santa Cruz","name:tt":"Санта-Крус","name:uk":"Санта-Крус","name:ur":"صوبہ سانتا کروز، ارجنٹائن","name:vi":"Santa Cruz","name:vo":"Santa Cruz","name:zh":"圣克鲁斯省","wikidata":"Q44821","ISO3166-2":"AR-Z","wikipedia":"es:Provincia de Santa Cruz","short_name":"SC"}}},
{"type":"Feature","geometry":{"type":"Polygon","coordinates":[[[-62.8840813,-34.3863745],[-62.4112758,-33.768747],[-61.9203523,-33.1202006],[-61.7878819,-33.0062927],[-61.7723145,-32.913056],[-61.7959817,-32.7736848],[-61.8577515,-32.6945416],[-61.9466178,-32.6784541],[-61.8900713,-32.6136142],[-61.9129668,-32.5002104],[-62.0116747,-32.3472771],[-62.0440199,-32.2575123],[-62.127617,-32.2092732],[-62.1967936,-32.1146411],[-62.1674595,-31.9851554],[-62.2223775,-31.8837305],[-62.2174073,-31.7405751],[-62.2403504,-31.6993781],[-62.1271395,-31.6165162],[-61.8429364,-30.7463256],[-62.1305922,-30.4799264],[-62.0534332,-30.0197789],[-61.9402944,-29.3603312],[-61.8333648,-28.7246514],[-61.7116223,-27.9986392],[-60.8168392,-27.9990608],[-59.7592955,-28.0005264],[-58.8986536,-28.0009761],[-58.9021119,-28.0836019],[-58.9806598,-28.1357656],[-59.0751378,-28.136166],[-59.1107791,-28.2353251],[-59.0472444,-28.4942955],[-59.1172414,-28.5859363],[-59.0805631,-28.6651934],[-59.1395734,-28.7843713],[-59.2178922,-29.058178],[-59.3462949,-29.118482],[-59.3994813,-29.217474],[-59.5141797,-29.2683386],[-59.5109687,-29.3394731],[-59.6018347,-29.3913474],[-59.5811276,-29.454155],[-59.6319394,-29.533644],[-59.6031003,-29.5835168],[-59.6315961,-29.6909434],[-59.6137433,-29.7416327],[-59.6607785,-29.821491],[-59.5680814,-30.0104526],[-59.6151166,-30.1013831],[-59.6744994,-30.3444309],[-59.6988873,-30.4213492],[-59.6525388,-30.485868],[-59.6607785,-30.6295496],[-59.6278195,-30.6948158],[-59.7596555,-30.8997772],[-59.8156171,-30.9421894],[-60.0041013,-31.2388402],[-60.0923352,-31.2951841],[-60.1119046,-31.4080638],[-60.2468305,-31.5310507],[-60.3137587,-31.5379418],[-60.3354077,-31.6073968],[-60.4764755,-31.6980887],[-60.5690389,-31.6996014],[-60.6362317,-31.7421237],[-60.676868,-31.8199418],[-60.6522252,-31.8977996],[-60.6938128,-31.9463844],[-60.6628355,-32.0960198],[-60.7043982,-32.1466573],[-60.6732417,-32.2335314],[-60.6833818,-32.3240038],[-60.7368422,-32.343784],[-60.7186104,-32.4313742],[-60.7706072,-32.5218668],[-60.7140233,-32.6825498],[-60.7224347,-32.7570179],[-60.6668164,-32.9119282],[-60.4966235,-33.1307052],[-60.2838493,-33.2010444],[-60.2602234,-33.2616119],[-60.3464618,-33.4241479],[-60.4101925,-33.4677255],[-60.4184889,-33.5585552],[-60.457614,-33.6279463],[-60.5233485,-33.6487618],[-60.6924509,-33.5840595],[-60.861333,-33.5463584],[-60.9218056,-33.6369691],[-61.0346834,-33.7312002],[-61.3106381,-34.0103055],[-61.7176808,-34.385686],[-62.3630339,-34.3859352],[-62.8840813,-34.3863745]]]},"properties":{"srid":"4326","id":"153543","name":"Santa Fe","localname":"Santa Fe","official_name":"Provincia de Santa Fe","boundary":"administrative","admin_level":"4","note":"","wikidata":"Q44823","wikipedia":"es:Provincia de Santa Fe","timestamp":"2019-12-14 22:58:01","rpath":"153543,286393,0","alltags":{"name:el":"Σάντα Φε","name:he":"סנטה פה","name:ja":"サンタフェ州","name:ru":"Санта-Фе","name:uk":"Санта-Фе","timezone":"America/Argentina/Cordoba","wikidata":"Q44823","ISO3166-2":"AR-S","wikipedia":"es:Provincia de Santa Fe","short_name":"Sta. Fe","is_in:country":"Argentina","official_name":"Provincia de Santa Fe"}}},
{"type":"Feature","geometry":{"type":"Polygon","coordinates":[[[-65.1710451,-27.9464573],[-65.1677217,-27.9069721],[-65.0397295,-27.8791708],[-64.9882281,-27.7338762],[-65.0297983,-27.5868191],[-64.9557684,-27.5460866],[-65.0122453,-27.4662515],[-64.9326363,-27.3449991],[-64.8545731,-27.3184167],[-64.8111306,-27.1487738],[-64.7493517,-27.0046205],[-64.7108997,-26.9736586],[-64.6721918,-26.8004199],[-64.6220921,-26.8091377],[-64.5901355,-26.6605235],[-64.5045515,-26.6766811],[-64.5086936,-26.549125],[-64.5341255,-26.4093612],[-64.4816866,-26.3074499],[-64.4952789,-26.2192648],[-64.4254965,-26.1158838],[-64.4036579,-26.0311691],[-64.2683029,-25.7007136],[-64.1960335,-25.7273773],[-64.0254214,-25.7533934],[-64.0077853,-25.6733052],[-63.6604221,-25.6853336],[-63.4760921,-25.7098297],[-63.4222977,-25.6490492],[-62.9667667,-25.6495731],[-62.2234728,-25.6498828],[-61.7162,-25.65],[-61.7166872,-26.6452353],[-61.7162025,-27.137995],[-61.7116223,-27.9986392],[-61.8333648,-28.7246514],[-61.9402944,-29.3603312],[-62.0534332,-30.0197789],[-62.1305922,-30.4799264],[-62.1704675,-30.2811426],[-62.5653062,-30.2880358],[-62.6009314,-30.1925763],[-62.5565657,-30.0632261],[-62.6757103,-30.0355888],[-62.6623429,-29.9977435],[-62.7867387,-29.96397],[-62.8348982,-29.8535975],[-62.8063728,-29.8340106],[-63.4596575,-29.7568953],[-63.465366,-29.6644718],[-63.7485175,-29.6521153],[-63.8408677,-29.5794135],[-63.8738507,-29.6307334],[-63.9623148,-29.6235807],[-63.9814105,-29.5508479],[-64.2746077,-29.4987563],[-64.8246472,-29.5742646],[-64.8212616,-29.4568459],[-64.7876101,-29.3997135],[-64.842459,-29.3342365],[-64.8246906,-29.2740066],[-64.8544848,-29.1981616],[-64.8634699,-29.0160493],[-64.9068004,-28.9316502],[-64.9012978,-28.8385022],[-65.0168463,-28.7387251],[-65.1267704,-28.7163647],[-65.1391839,-28.6572333],[-65.0970547,-28.4711495],[-65.1124509,-28.186361],[-65.1710451,-27.9464573]]]},"properties":{"srid":"4326","id":"153544","name":"Santiago del Estero","localname":"Santiago del Estero","official_name":"","boundary":"administrative","admin_level":"4","note":"","wikidata":"Q44827","wikipedia":"es:Provincia de Santiago del Estero","timestamp":"2019-11-26 10:31:02","rpath":"153544,286393,0","alltags":{"name:el":"Σαντιάγκοο ντελ Εστέρο","name:he":"סנטיאגו דל אסטרו","name:ja":"サンティアゴ・デル・エステロ州","name:ru":"Сантьяго-дель-Эстеро","name:uk":"Сантьяго-дель-Естеро","timezone":"America/Argentina/Cordoba","wikidata":"Q44827","ISO3166-2":"AR-G","wikipedia":"es:Provincia de Santiago del Estero","short_name":"SDE","is_in:country":"Argentina"}}},
{"type":"Feature","geometry":{"type":"MultiPolygon","coordinates":[[[[-68.6093464,-54.8936523],[-68.5955754,-54.8086188],[-68.6074733,-54.5556287],[-68.6079429,-54.1885824],[-68.6065727,-53.4800185],[-68.606761,-52.6590218],[-68.2851453,-52.9533561],[-68.53698,-53.1446],[-68.55806,-53.2497201],[-68.32415,-53.32048],[-68.2073823,-53.307132],[-68.0815101,-53.392],[-68.05314,-53.4922099],[-67.9178799,-53.6499],[-67.5835261,-53.8318074],[-67.5672047,-53.898472],[-67.31901,-54.04778],[-67.0511201,-54.1439101],[-66.9048,-54.2157499],[-66.7643099,-54.25114],[-66.66383,-54.34121],[-66.4619342,-54.480006],[-66.3076676,-54.5081529],[-65.8579661,-54.6393806],[-65.6904497,-54.6631475],[-65.5263336,-54.6622026],[-65.2439779,-54.6215246],[-65.1750049,-54.6811874],[-65.2255101,-54.8179],[-65.39389,-54.94177],[-65.4270832,-54.8952551],[-65.6313372,-54.9687339],[-65.7366836,-54.9090189],[-65.9088923,-54.9122731],[-66.0375524,-54.9831486],[-66.308944,-54.992537],[-66.3723676,-55.0391642],[-66.5234085,-55.0560369],[-66.7187201,-54.99812],[-66.7627358,-54.9617225],[-67.1559999,-54.89295],[-67.3938503,-54.8895465],[-67.53246,-54.8673499],[-67.6242699,-54.88405],[-67.99017,-54.8558801],[-68.2647287,-54.7953891],[-68.3806877,-54.8504795],[-68.4817594,-54.8466795],[-68.6093464,-54.8936523]]],[[[-64.7577594,-54.8375087],[-64.7135267,-54.7977292],[-64.568209,-54.8130398],[-64.5240362,-54.7714764],[-64.2845611,-54.7320194],[-64.0843319,-54.7522664],[-63.8768558,-54.7178128],[-63.8003555,-54.7476589],[-64.1089316,-54.8297106],[-64.3904786,-54.8283682],[-64.6215391,-54.9041091],[-64.7577594,-54.8375087]]]]},"properties":{"srid":"4326","id":"153550","name":"Tierra del Fuego Province","localname":"Tierra del Fuego","official_name":"","boundary":"administrative","admin_level":"4","note":"","wikidata":"Q44832","wikipedia":"es:Provincia de Tierra del Fuego, Antártida e Islas del Atlántico Sur","timestamp":"2019-12-04 22:59:02","rpath":"153550,286393,0","alltags":{"name:ar":"محافظة تييرا ديل فويغو","name:ay":"Ninasuyu jisk'a suyu","name:be":"Вогненная Зямля","name:bg":"Огнена земя","name:br":"Proviñs Tierra del Fuego","name:ca":"Terra del Foc","name:cs":"Ohňová země","name:cy":"Tierra del Fuego","name:el":"Γη του Πυρός","name:en":"Tierra del Fuego Province","name:eo":"Provinco de Fajrolando","name:et":"Tulemaa provints","name:eu":"Suaren Lurraldea","name:fa":"استان تیرا دل فوئگو","name:fi":"Tulimaan","name:fr":"Province de Terre de Feu","name:gl":"Terra de Fogo","name:he":"טיירה דל פואגו","name:hi":"टिएरा देल फ्यूगो, अर्जेंटीना","name:hy":"Հրո Երկիր","name:id":"Provinsi Tierra del Fuego","name:it":"Terra del Fuoco","name:ja":"ティエラ・デル・フエゴ州","name:ka":"ცეცხლოვანი მიწის პროვინცია","name:ko":"티에라델푸에고주","name:lt":"Ugnies Žemės","name:lv":"Tjerra del Fuego province","name:mk":"Огнена Земја","name:mr":"तिएरा देल फ्वेगो","name:ms":"Wilayah Tierra del Fuego","name:nl":"Vuurland","name:nn":"Tierra del Fuego","name:no":"Tierra del Fuego","name:oc":"Província de Tèrra deu Huec","name:os":"Арты Зæхх","name:pl":"Ziemia Ognista","name:pt":"Terra do Fogo","name:qu":"Ninasuyu wamani","name:ro":"Provincia Tierra del Fuego","name:ru":"Огненная Земля, Антарктида и острова Южной Атлантики","name:sk":"Tierra del Fuego","name:sl":"Ognjena zemlja","name:sr":"Огњена Земља","name:sv":"Eldslandet","name:sw":"Tierra del Fuego","name:tg":"Замини Оташӣ","name:th":"รัฐติเอร์ราเดลฟูเอโก","name:tl":"Lalawigan ng Tierra del Fuego","name:tr":"Tierra del Fuego","name:tt":"Тьерра-дел-Фвего","name:uk":"Вогняна Земля, Антарктида та острови Південної Атлантики","name:ur":"صوبہ تیئرا دل فوئگو، ارجنٹائن","name:vi":"Tierra del Fuego","name:vo":"Tierra del Fuego, Antártida e Islas del Atlántico Sur","name:zh":"火地省","wikidata":"Q44832","ISO3166-2":"AR-V","wikipedia":"es:Provincia de Tierra del Fuego, Antártida e Islas del Atlántico Sur","short_name":"TDF","alt_name:he":"ארץ האש","is_in:country":"Argentina"}}},
{"type":"Feature","geometry":{"type":"Polygon","coordinates":[[[-66.0998,-26.2205],[-66,-26.264],[-65.7194,-26.3528],[-65.7242,-26.2789],[-65.6885,-26.1173],[-65.6017,-26.1207],[-65.5488,-26.0876],[-65.4244,-26.109],[-65.3611,-26.0583],[-65.2917012,-26.1022508],[-65.271999,-26.172557],[-65.0452,-26.2301],[-65.0398939,-26.2831193],[-64.9509,-26.3068],[-64.7904,-26.2237],[-64.6617,-26.2431],[-64.4952789,-26.2192648],[-64.4816866,-26.3074499],[-64.5341255,-26.4093612],[-64.5086936,-26.549125],[-64.5045515,-26.6766811],[-64.5901355,-26.6605235],[-64.6220921,-26.8091377],[-64.6721918,-26.8004199],[-64.7108997,-26.9736586],[-64.7493517,-27.0046205],[-64.8111306,-27.1487738],[-64.8545731,-27.3184167],[-64.9326363,-27.3449991],[-65.0122453,-27.4662515],[-64.9557684,-27.5460866],[-65.0297983,-27.5868191],[-64.9882281,-27.7338762],[-65.0397295,-27.8791708],[-65.1677217,-27.9069721],[-65.1710451,-27.9464573],[-65.3606277,-27.8291899],[-65.5008268,-27.9244097],[-65.5758566,-28.0139024],[-65.667817,-27.9701823],[-65.6991888,-27.8357451],[-65.7582621,-27.7656618],[-65.8284903,-27.8191133],[-65.875311,-27.6725067],[-65.9153724,-27.6690671],[-65.9738231,-27.5026379],[-65.9716988,-27.3339551],[-66.1172569,-27.2663413],[-66.0547185,-27.144147],[-65.9777069,-27.0877472],[-65.8576298,-26.9012139],[-65.9005237,-26.8637783],[-65.8325887,-26.7378878],[-66.0437885,-26.6002451],[-66.1722852,-26.6289307],[-66.1780358,-26.4831728],[-66.1189843,-26.3770298],[-66.0998,-26.2205]]]},"properties":{"srid":"4326","id":"153558","name":"Tucumán","localname":"Tucumán","official_name":"","boundary":"administrative","admin_level":"4","note":"","wikidata":"Q44829","wikipedia":"es:Provincia de Tucumán","timestamp":"2019-11-26 10:31:02","rpath":"153558,286393,0","alltags":{"name:el":"Τουκουμάν","name:he":"טוקומאן","name:ja":"トゥクマン州","name:ru":"Тукуман","timezone":"America/Argentina/Tucuman","wikidata":"Q44829","ISO3166-2":"AR-T","wikipedia":"es:Provincia de Tucumán","short_name":"TU","is_in:country":"Argentina"}}}
]}